,Unnamed: 0.1,Name,Url,County,Sites,Average_rent,Unnamed: 0,FullstreetAddress,Latitude,Longitude,House districts,Senate districts
0,0,Pridnia's Mobile Home Park,https://www.mhvillage.com/parks/15755, Alcona ,,,0,"116 West Church, Harrisville, MI, 48740",44.68205,-83.39782,106,36
1,1,Ausable Mobile Home Village,https://www.mhvillage.com/parks/15815, Iosco ,15,,465,"331 First Street, Oscoda, MI, 48750",44.43481,-83.50601,99,36
2,2,Ossineke Mobile Home Park,https://www.mhvillage.com/parks/15757, Montmorency ,12,,815,"Block 1, Old Ossineke Road, Ossineke, MI, 49766",44.9352,-83.43083,106,36
3,3,Rose Lane Trailer Court,https://www.mhvillage.com/parks/15818, Iosco ,35,,468,"4263 Bissionette, Oscoda, MI, 48750",44.43481,-83.50601,99,36
4,4,Van Ettan Village,https://www.mhvillage.com/parks/569, Iosco ,32,,469,"4385 Van Ettan Dam Road, Oscoda, MI, 48750",44.43481,-83.50601,99,36
5,5,Hubbard Lake Trailer Park,https://www.mhvillage.com/parks/541, Oscoda ,,,938,"7298 Hurbert Road, Hubbard Lake, MI, 49747",44.85834,-83.6389,106,36
6,6,Oscoda Mobile Home Park,https://www.mhvillage.com/parks/15819, Iosco ,,,470,"6445 Seminole Street, Oscoda, MI, 48750",44.43481,-83.50601,99,36
7,7,Riverview Mobile Home Park,https://www.mhvillage.com/parks/15949, Montmorency ,,,828,"13021 Us 23 South, Ossineke, MI, 49766",44.88774,-83.43127,106,36
8,8,Village Court,https://www.mhvillage.com/parks/15760, Montmorency ,,,831,"2300 Papin Street, Ossineke, MI, 49766",44.9352,-83.43083,106,36
9,9,Island View Estates,https://www.mhvillage.com/parks/15753, Luce ,37,,643,"801 Prospect Street, Munising, MI, 49862",46.40564,-86.61539,109,38
10,10,Pioneer Village,https://www.mhvillage.com/parks/15829, Marquette ,90,,690,"777 Pioneer Road, Site 169, Marquette, MI, 49855",46.52561,-87.41541,109,38
11,11,Silver Creek Estates,https://www.mhvillage.com/parks/15832, Marquette ,90,230,691,"627 Willow Road, Marquette, MI, 49855",46.56109,-87.36552,109,38
12,12,Brier's Mobile Home Court,https://www.mhvillage.com/parks/556, Delta ,10,,269,"8467 P5 Road, Gladstone, MI, 49837",45.88084,-87.1059,108,38
13,13,Oak Bluff Estates,https://www.mhvillage.com/parks/15908, Delta ,175,,270,"2722 South Hill Road, Gladstone, MI, 49837",45.88084,-87.1059,108,38
14,14,Birch Grove Mobile Home Community,https://www.mhvillage.com/parks/15838, Marquette ,80,,693,"500 Pioneer Road, Marquette, MI, 49855",46.56109,-87.36552,109,38
15,15,NorthernAir Mobile Estates,https://www.mhvillage.com/parks/15841, Marquette ,150,,694,"642 South Mackinac Lane, Gwinn, MI, 49841",46.32394,-87.49016,109,38
16,16,Whispering Pines Mobile Home Park,https://www.mhvillage.com/parks/15787, Delta ,,,272,"8741 0.8 Lane, Gladstone, MI, 49837",45.88084,-87.1059,108,38
17,17,553 Mobile Estates,https://www.mhvillage.com/parks/15828, Marquette ,,,696,"Box 100 Star Route, Gwinn, MI, 49841",46.32394,-87.49016,109,38
18,18,Lake Bluff Retirement Village,https://www.mhvillage.com/parks/100639, Delta ,,,273,"401 Kenneally Blvd., Gladstone, MI, 49837",45.88084,-87.1059,108,38
19,19,Pine Acres Trailer Court,https://www.mhvillage.com/parks/15830, Marquette ,,,697,"3000 Us 41 South, Marquette, MI, 49855",46.55131,-87.45097,109,38
20,20,Whitefish Hill Trailer Court,https://www.mhvillage.com/parks/15786, Delta ,,,275,"8455 Us Highway 2, Rapid River, MI, 49878",45.92293,-86.93786,108,38
21,21,Hunters Glen,https://www.mhvillage.com/parks/29480, Allegan ,280,,21,"1132 Hunters Glen Boulevard, Wayland, MI, 49348",42.6919,-85.62058,79,18
22,22,Dover Farms,https://www.mhvillage.com/parks/30327, Allegan ,60,435,23,"1590 Dover Drive, Martin, MI, 49070",42.54385,-85.62228,43,18
23,23,Dumont Creek Estates,https://www.mhvillage.com/parks/15115, Allegan ,75,300,33,"1925 Laura Street, Allegan, MI, 49010",42.56072,-85.88961,43,20
24,24,Gun Lake Manufactured Home Community,https://www.mhvillage.com/parks/104895, Allegan ,59,,24,"19985 Marsh Road, Shelbyville, MI, 49344",42.5897,-85.53932,43,18
25,25,Country Meadows,https://www.mhvillage.com/parks/516, Wayne ,577,,1162,"3211 Will Carleton Road, Flat Rock, MI, 48134",42.09412,-83.32407,29,16
26,26,Windsor Woods Village,https://www.mhvillage.com/parks/15869, Allegan ,314,377,22,"1135 West Superior Street, Wayland, MI, 49348",42.6919,-85.62058,79,18
27,27,Rabbit River ,https://www.mhvillage.com/parks/15125, Allegan ,102,,26,"3471 Homer Drive, Wayland, MI, 49348",42.6919,-85.62058,79,18
28,28,Yankee Springs Meadows,https://www.mhvillage.com/parks/456, Allegan ,284,,27,"1330 North Patterson Road, Wayland, MI, 49348",42.6919,-85.62058,79,18
29,29,Watson Mobile Home Community,https://www.mhvillage.com/parks/427, Allegan ,176,327,28,"1362 East M-89, Otsego, MI, 49078",42.47605,-85.72572,39,18
30,30,Circle Inn Mobile Park,https://www.mhvillage.com/parks/452, Allegan ,20,,29,"11985 Marsh Road, Shelbyville, MI, 49344",42.5926,-85.58797,43,18
31,31,Country Acres Mobile Home Park,https://www.mhvillage.com/parks/240, Ottawa ,100,,974,"A-5904 142nd Avenue, Holland, MI, 49423",42.72504,-86.12528,43,31
32,32,Dogwood Manor,https://www.mhvillage.com/parks/15114, Allegan ,76,,31,"5289 124th Avenue, Fennville, MI, 49408",42.59484,-86.06449,43,20
33,33,Douglas Estates,https://www.mhvillage.com/parks/242, Allegan ,175,405,32,"2734 Blue Star Highway, Fennville, MI, 49408",42.6191,-86.21173,38,20
34,34,Dunlop's Orchard Mobile Home Park,https://www.mhvillage.com/parks/15565, Allegan ,22,460,34,"12703 Pine Lake Rd, Plainwell, MI, 49080",42.50233,-85.53583,43,18
35,36,Lake Park Trailer Resort,https://www.mhvillage.com/parks/15121, Allegan ,60,,36,"2126 Lakeshore Drive, Fennville, MI, 49408",42.5766,-86.11992,43,20
36,37,Maple Grove Estates,https://www.mhvillage.com/parks/15916, Lapeer ,210,415,574,"2070 South Almont Road, Imlay City, MI, 48444",43.06429,-83.04903,65,26
37,38,Orchard Hills Village,https://www.mhvillage.com/parks/15903, Allegan ,167,380,38,"2400 56th Street, Fennville, MI, 49408",42.59692,-86.09719,43,20
38,40,Pine Crest Mobile Villa,https://www.mhvillage.com/parks/15126, Allegan ,82,,40,"1160 West Bridge Street, Plainwell, MI, 49080",42.47683,-85.57617,42,18
39,41,Pine Ridge Community,https://www.mhvillage.com/parks/15957, Allegan ,49,225,41,"4629 134th Avenue, Hamilton, MI, 49419",42.66761,-85.9991,43,20
40,42,Riverside Estates Mobile Home Community,https://www.mhvillage.com/parks/58541, Allegan ,41,445,42,"6200 Arrowhead Drive, Fennville, MI, 49408",42.5766,-86.11992,43,20
41,67,Huron Lake Estates,https://www.mhvillage.com/parks/15989, Presque Isle ,36,,981,"1121 Bare Point Road, Alpena, MI, 49707",45.07332,-83.47292,106,36
42,68,Lake Shore Estates,https://www.mhvillage.com/parks/538, Presque Isle ,58,,983,"8924 West Long Lake Road, Alpena, MI, 49707",45.07332,-83.47292,106,36
43,69,Alpena Mobile Home Court,https://www.mhvillage.com/parks/15759, Presque Isle ,,,984,"624 Ripley Boulevard, Alpena, MI, 49707",45.07332,-83.47292,106,36
44,70,Long Lake Trailer Court,https://www.mhvillage.com/parks/15758, Presque Isle ,,,987,"10080 Us 23 North, Alpena, MI, 49707",45.1942,-83.43574,106,36
45,71,Mancelona Chamber Park,https://www.mhvillage.com/parks/15939, Otsego ,15,160,952,"Franklin Street, Mancelona, MI, 49659",44.923,-85.02892,105,37
46,72,Vacation Village Mobile Home Park,https://www.mhvillage.com/parks/15761, Leelanau ,65,417,593,"601 Shadywood, Elk Rapids, MI, 49629",44.90162,-85.39481,104,37
47,73,Evergreen MHP,https://www.mhvillage.com/parks/548, Otsego ,70,,953,"707 State Street, East Jordan, MI, 49727",45.14116,-85.06066,107,37
48,74,Chain O' Lakes Campground & Mobile Home Park,https://www.mhvillage.com/parks/15762, Kalkaska ,15,,543,"7231 S M 88 Highway, Bellaire, MI, 49615",44.96394,-85.20269,104,37
49,75,Town and Country,https://www.mhvillage.com/parks/15709, Leelanau ,192,398,587,"849 Manor Lane, Traverse City, MI, 49686",44.80961,-85.48382,103,37
50,76,Fox Run,https://www.mhvillage.com/parks/128022, Otsego ,140,,954,"141 Fox Run Street, Boyne City, MI, 49712",45.22139,-85.00857,107,37
51,77,Lakeview Village Mobile Home Park,https://www.mhvillage.com/parks/15769, Otsego ,152,250,951,"526 North Lake Street, Boyne City, MI, 49712",45.19724,-85.01066,107,37
52,78,Woodcreek,https://www.mhvillage.com/parks/15992, Leelanau ,219,500,594,"501 Woodcreek Boulevard, Traverse City, MI, 49686",44.80961,-85.48382,103,37
53,79,Valley Mobile Home Park,https://www.mhvillage.com/parks/15942, Kalkaska ,10,,538,"1268 Wood Road, Rapid City, MI, 49676",44.86895,-85.28593,104,37
54,80,Cherryland Mobile Home Park,https://www.mhvillage.com/parks/15723, Leelanau ,52,,596,"3011 North Garfield, Traverse City, MI, 49686",44.80961,-85.48382,103,37
55,81,Valleywood Cove,https://www.mhvillage.com/parks/92821, Leelanau ,,,598,"996 Garfield Woods Drive Suite D, Traverse City, MI, 49686",44.80961,-85.48382,103,37
56,82,O & M Mobile Home Park,https://www.mhvillage.com/parks/15616, Ogemaw ,40,,908,"1090 Michigan 76, Alger, MI, 48610",44.14528,-84.19386,99,34
57,83,Au Gres Harbor Mobile Court,https://www.mhvillage.com/parks/15617, Arenac ,,,63,"330 South Main Street, Au Gres, MI, 48703",44.05829,-83.66189,99,36
58,84,Lakeshore Village,https://www.mhvillage.com/parks/15612, Gladwin ,29,,346,"4061 Lakeshore Drive, Gladwin, MI, 48624",44.07468,-84.45566,99,34
59,85,Lakefront Estates,https://www.mhvillage.com/parks/483, Gladwin ,68,,347,"385 West Brown Street, Beaverton, MI, 48612",43.88426,-84.45606,95,34
60,86,Pleasant Beach Mobile Home Resort,https://www.mhvillage.com/parks/15582, Gladwin ,101,280,348,"4991 Wixom Road, Beaverton, MI, 48612",43.88426,-84.45606,95,34
61,87,Westgate Trails,https://www.mhvillage.com/parks/15448, Bay ,50,250,101,"Lawrence & Horn Roads, Pinconning, MI, 48650",43.8457,-84.02266,99,36
62,88,Greenbriar Village,https://www.mhvillage.com/parks/15611, Gladwin ,69,,349,"1305 North Springs Street, Gladwin, MI, 48624",44.07468,-84.45566,99,34
63,89,Tawas River Trailer Park,https://www.mhvillage.com/parks/15816, Iosco ,65,,466,"560 East M-55, Tawas City, MI, 48763",44.2254,-83.61976,99,36
64,90,Twin Pines Mobile Home Park,https://www.mhvillage.com/parks/15849, Oscoda ,30,,934,"1766 Rau Road, West Branch, MI, 48661",44.34144,-84.20302,99,36
65,91,Wixom Waters,https://www.mhvillage.com/parks/16041, Midland ,51,,747,"Po Box 222, Edenville, MI, 48620",43.80626,-84.3796,95,34
66,92,Country Village Estates,https://www.mhvillage.com/parks/15848, Oscoda ,53,,936,"2522 Woodlawn Drive, West Branch, MI, 48661",44.34144,-84.20302,99,36
67,93,Riverview Mobile Park,https://www.mhvillage.com/parks/15613, Gladwin ,48,,350,"2577 Lake Shore Drive, Gladwin, MI, 48624",44.07468,-84.45566,99,34
68,94,Gladwin Village,https://www.mhvillage.com/parks/15614, Gladwin ,,,351,"805 North Bowery Avenue, Gladwin, MI, 48624",44.07468,-84.45566,99,34
69,95,Key Mobile Home Court,https://www.mhvillage.com/parks/15615, Gladwin ,,,352,"221 North Lakeview Drive, Gladwin, MI, 48624",44.07468,-84.45566,99,34
70,96,L'anse Mobile Home Court,https://www.mhvillage.com/parks/15763, Houghton ,40,,400,"99 Kelly Street, L Anse, MI, 49946",46.77943,-88.24087,109,38
71,97,Sunnyside & Forest Lane MHC,https://www.mhvillage.com/parks/15840, Marquette ,134,,692,"728 N. Lake Dr, Ishpeming, MI, 49849",46.48779,-87.70757,109,38
72,98,Forest Lane Mobile Park,https://www.mhvillage.com/parks/15837, Marquette ,20,,695,"3310 County Road 496, Ishpeming, MI, 49849",46.50624,-87.72879,109,38
73,99,Beachview Mobile Court,https://www.mhvillage.com/parks/15804, Ontonagon ,20,,913,"1845 Jasberg Street, Hancock, MI, 49930",47.18742,-88.54504,110,38
74,100,Birch Grove,https://www.mhvillage.com/parks/65356, Ontonagon ,31,,914,"400 Elevation St, Hancock, MI, 49930",47.18742,-88.54504,110,38
75,101,Fob's Shady Acres,https://www.mhvillage.com/parks/571, Iron ,,,472,"1501 Us 2 West, Crystal Falls, MI, 49920",46.09401,-88.3695,110,38
76,102,Hiawatha Country Estates,https://www.mhvillage.com/parks/15820, Ontonagon ,,,917,"220 Hiawatha Drive, Iron River, MI, 49935",46.20261,-88.7372,110,38
77,103,US 41 Trailer Court,https://www.mhvillage.com/parks/15833, Marquette ,,,698,"140 Midway Drive, Negaunee, MI, 49866",46.46324,-87.57237,109,38
78,104,Meadowstone Manufactured Home Community,https://www.mhvillage.com/parks/15986, Barry ,231,400,85,"1812 Lavender Dr, Hastings, MI, 49058",42.63246,-85.27397,78,18
79,105,Cider Mill Village,https://www.mhvillage.com/parks/15891, Barry ,258,,84,"425 Cider Mill Drive, Middleville, MI, 49333",42.72148,-85.46037,79,18
80,106,Thornapple Lake Estates,https://www.mhvillage.com/parks/448, Barry ,215,295,86,"6335 Thornapple Lake Road, Nashville, MI, 49073",42.57761,-85.14295,78,18
81,107,Baltimore Terrace Mobile Home Park,https://www.mhvillage.com/parks/15564, Barry ,62,,87,"1485 Sandy Circle, Hastings, MI, 49058",42.63877,-85.32057,79,18
82,108,Merlinos Hidden Valley Estates,https://www.mhvillage.com/parks/454, Barry ,78,,88,"4777 Barber Road, Hastings, MI, 49058",42.63877,-85.32057,79,18
83,109,Pine Haven Subdivision,https://www.mhvillage.com/parks/16031, Barry ,,,89,"Pinedale, Hastings, MI, 49058",42.63877,-85.32057,79,18
84,110,Barry's Resort,https://www.mhvillage.com/parks/15566, Barry ,50,,90,"2875 South Charlton Park Road, Hastings, MI, 49058",42.63877,-85.32057,79,18
85,112,Westshore Estates,https://www.mhvillage.com/parks/15356, Bay ,110,,92,"3201 South Euclid Avenue, Bay City, MI, 48706",43.60941,-83.94517,96,35
86,113,Alpine Village Mobile Home Park,https://www.mhvillage.com/parks/15457, Bay ,120,380,93,"2959 East Alpine Boulevard, Bay City, MI, 48706",43.60941,-83.94517,96,35
87,114,White Birch Estates,https://www.mhvillage.com/parks/482, Osceola ,50,,920,"411 Dailey Drive, Reed City, MI, 49677",43.88709,-85.50842,100,34
88,115,Westwood Village,https://www.mhvillage.com/parks/349, Bay ,240,400,95,"2904 Stratford, Bay City, MI, 48706",43.64101,-83.9348,96,35
89,116,Fairfield Manor,https://www.mhvillage.com/parks/430, Bay ,137,315,96,"1016 Parkside Boulevard, Bay City, MI, 48706",43.60941,-83.94517,96,35
90,117,Saginaw Bay Estates,https://www.mhvillage.com/parks/364, Bay ,309,310,97,"1760 Saginaw Bay Estates Dr, Essexville, MI, 48732",43.61837,-83.77667,96,35
91,118,Brentwood Estates,https://www.mhvillage.com/parks/15352, Bay ,150,,98,"3278 Brentwood Drive, Bay City, MI, 48706",43.60941,-83.94517,96,35
92,120,Wenona Beach Estates,https://www.mhvillage.com/parks/15449, Bay ,184,310,100,"4444 National Avenue, Bay City, MI, 48706",43.60941,-83.94517,96,35
93,121,Willow Tree Village,https://www.mhvillage.com/parks/16027, Bay ,78,,102,"3840 Riata Dr, Bay City, MI, 48706",43.63473,-83.89947,96,35
94,122,Bay Village Mobile Home Estates,https://www.mhvillage.com/parks/33824, Bay ,102,280,103,"1274 West Hampton Road, Essexville, MI, 48732",43.60686,-83.77368,96,35
95,123,Bayco Mobile Home Park,https://www.mhvillage.com/parks/15447, Bay ,61,,104,"2836 East Biscayne Drive, Bay City, MI, 48706",43.60941,-83.94517,96,35
96,125,Pines Trailer Park,https://www.mhvillage.com/parks/15452, Bay ,29,,106,"2080 South Huron Road, Kawkawlin, MI, 48631",43.68189,-84.00666,96,35
97,126,Shady Rest Mobile Home Park,https://www.mhvillage.com/parks/15355, Bay ,129,,107,"3612 East Shod Street, Bay City, MI, 48706",43.60941,-83.94517,96,35
98,127,Linwood Mobile Home Park,https://www.mhvillage.com/parks/15454, Bay ,,,109,"1815 Pamela Drive, Linwood, MI, 48634",43.75989,-84.0515,96,34
99,128,Mulberry Place,https://www.mhvillage.com/parks/15453, Bay ,,,110,"2627 Broadway, Bay City, MI, 48708",43.56721,-83.82227,96,35
100,129,Harbor Village Community,https://www.mhvillage.com/parks/15766, Manistee ,17,,684,"1208 Elm Street, Frankfort, MI, 49635",44.62474,-86.1894,104,32
101,130,Crystal Lake Mobile Home Park,https://www.mhvillage.com/parks/545, Manistee ,47,,687,"6695 Spruce Drive, Benzonia, MI, 49616",44.578,-86.05958,104,32
102,131,Hillside Mobile Home Park,https://www.mhvillage.com/parks/543, Manistee ,,,689,"857 Glenn Avenue, Elberta, MI, 49628",44.61843,-86.22682,104,32
103,132,Meadow Lane,https://www.mhvillage.com/parks/512, Leelanau ,483,774,589,"4310 Meadowlane Drive, Traverse City, MI, 49684",44.78319,-85.72485,103,37
104,133,Suburban Estates Mobile Home Park,https://www.mhvillage.com/parks/15706, Leelanau ,75,365,588,"7230 Suburban Drive, Traverse City, MI, 49684",44.78319,-85.72485,103,37
105,134,"Burke Silver Lake View, LLC",https://www.mhvillage.com/parks/15748, Leelanau ,49,300,590,"5099 Silver Lake View Road, Traverse City, MI, 49684",44.78319,-85.72485,103,37
106,135,Dorsey's on Glen Lake,https://www.mhvillage.com/parks/15822, Leelanau ,54,,585,"8648 South Dorsey Park Road, Empire, MI, 49630",44.83906,-86.03016,103,37
107,136,First Point Mobile Home Court,https://www.mhvillage.com/parks/33826, Leelanau ,53,,591,"7903 Birchpoint Drive, Traverse City, MI, 49684",44.78319,-85.72485,103,37
108,137,Silver Shores Manufactured Home Community,https://www.mhvillage.com/parks/15749, Wexford ,200,415,1188,"1257 Overlook Drive, Traverse City, MI, 49685",44.67299,-85.68222,104,37
109,138,Buena Vista Estates,https://www.mhvillage.com/parks/15765, Wexford ,68,,1189,"17426 Honor Highway, Interlochen, MI, 49643",44.63341,-85.84129,104,32
110,139,Kampvilla RV Park,https://www.mhvillage.com/parks/15827, Manistee ,40,,683,"16632 Pleasanton Highway, Bear Lake, MI, 49614",44.48312,-86.11764,104,32
111,140,Pat's Place,https://www.mhvillage.com/parks/15740, Wexford ,20,,1185,"2951 North 7 Road, Mesick, MI, 49668",44.41834,-85.69718,101,36
112,141,White Pines Mobile Home Park,https://www.mhvillage.com/parks/15752, Wexford ,33,,1186,"Paul Drive, Mesick, MI, 49668",44.41834,-85.69718,101,36
113,142,R & R Chervenka,https://www.mhvillage.com/parks/15823, Leelanau ,,,597,"9640 Crain Hill Road, Traverse City, MI, 49684",44.78319,-85.72485,103,37
114,143,Warren Dunes Village,https://www.mhvillage.com/parks/15882, Berrien ,314,,127,"11159 Red Arrow Highway, Bridgman, MI, 49106",41.93932,-86.56886,38,17
115,144,Pleasant View Estates,https://www.mhvillage.com/parks/15363, Van Buren ,209,420,1108,"7604 Red Arrow Highway, Watervliet, MI, 49098",42.17555,-86.2514,39,20
116,145,Silverbrook,https://www.mhvillage.com/parks/15964, Berrien ,176,400,129,"1000 West Wildflower, Niles, MI, 49120",41.84367,-86.25133,37,17
117,146,North Shore Estates,https://www.mhvillage.com/parks/15362, Berrien ,97,,130,"1565 M 63 North, Benton Harbor, MI, 49022",42.12681,-86.33201,39,20
118,147,Hills Haven,https://www.mhvillage.com/parks/15470, Berrien ,94,,126,"4205 Hills Haven Rd., Buchanan, MI, 49107",41.8788,-86.35676,37,17
119,148,Lakewood Estates,https://www.mhvillage.com/parks/15687, Ionia ,89,,455,"1615 Tupperlake Street, Lake Odessa, MI, 48849",42.80836,-85.14312,78,18
120,149,Sand Hill Community,https://www.mhvillage.com/parks/15463, Berrien ,80,,132,"5080 Saint Joseph Avenue, Stevensville, MI, 49127",42.00946,-86.51171,38,20
121,150,Riverside Estates,https://www.mhvillage.com/parks/414, Berrien ,87,,133,"14566 North Red Bud Trail, Buchanan, MI, 49107",41.8549,-86.3692,37,17
122,151,Birchcrest Estates,https://www.mhvillage.com/parks/15475, Berrien ,110,,134,"2330 East Main Street, Niles, MI, 49120",41.84367,-86.25133,37,17
123,152,Shawnee Community,https://www.mhvillage.com/parks/15344, Berrien ,161,,135,"1558 West Shawnee Road, Baroda, MI, 49101",41.94965,-86.48023,37,17
124,153,Baroda Estates,https://www.mhvillage.com/parks/15476, Berrien ,151,,136,"8836 Stevensville Baroda Road, Baroda, MI, 49101",41.94965,-86.48023,37,17
125,154,Country Acres Manufactured Home Community,https://www.mhvillage.com/parks/15465, Berrien ,64,,137,"2615 Old Us 31, Niles, MI, 49120",41.87435,-86.28344,37,17
126,155,Franklin Woods,https://www.mhvillage.com/parks/15358, Berrien ,268,,138,"1950 South 13th Street, Niles, MI, 49120",41.79377,-86.24637,37,17
127,156,Glen Aire Mobile Home Park,https://www.mhvillage.com/parks/15359, Berrien ,130,,139,"1153 West Glenlord Road, Saint Joseph, MI, 49085",42.0621,-86.45045,37,20
128,157,Indian Lake Woods,https://www.mhvillage.com/parks/32642, Berrien ,14,435,140,"54750 Highland Dr, Eau Claire, MI, 49111",42.0012,-86.21993,37,17
129,158,Lakeshore Estates,https://www.mhvillage.com/parks/15360, Berrien ,98,320,141,"3017 Johnson Road, Stevensville, MI, 49127",42.00946,-86.51171,38,20
130,159,Lakeside Cabins Resort,https://www.mhvillage.com/parks/90505, Berrien ,225,304,142,"7650 Warren Woods Rd, Three Oaks, MI, 49128",41.81761,-86.6127,37,17
131,160,Niles Pines Mobile Estates,https://www.mhvillage.com/parks/15672, Berrien ,80,350,143,"900 Mobile Boulevard, Niles, MI, 49120",41.84367,-86.25133,37,17
132,161,Ontario Place,https://www.mhvillage.com/parks/411, Berrien ,130,407,144,"2006 Ontario Road, Niles, MI, 49120",41.84367,-86.25133,37,17
133,162,Ravine View Estates,https://www.mhvillage.com/parks/15461, Berrien ,158,,145,"5100 Little Paw Paw Lake Road 6A, Coloma, MI, 49038",42.21045,-86.33474,39,20
134,163,Ravines Mobile Home Park,https://www.mhvillage.com/parks/15364, Berrien ,225,,146,"2088 East Empire Avenue, Benton Harbor, MI, 49022",42.12681,-86.33201,39,20
135,164,River Springs Estates,https://www.mhvillage.com/parks/15466, Berrien ,198,360,147,"9387 Us Highway 31, Berrien Springs, MI, 49103",41.95442,-86.33053,37,17
136,178,Tallgrass an FR Community,https://www.mhvillage.com/parks/15577, Branch ,239,275,148,"260 East Garfield Avenue, Coldwater, MI, 49036",41.92576,-84.99497,35,17
137,179,North Trail Village,https://www.mhvillage.com/parks/16005, Branch ,42,225,149,"100 North Main Street, Quincy, MI, 49082",41.94902,-84.90112,35,17
138,180,Grand Village Mobile Home Park,https://www.mhvillage.com/parks/15572, Branch ,25,220,150,"598 Union City Road, Coldwater, MI, 49036",41.90647,-85.04304,35,17
139,181,Love's Lazy Lagoon,https://www.mhvillage.com/parks/84109, Branch ,61,116,151,"622 N Union City Rd, Coldwater, MI, 49036",41.90647,-85.04304,35,17
140,182,Raymond's Landing,https://www.mhvillage.com/parks/84111, Branch ,70,152,152,"259 Earl Helen Dr, Coldwater, MI, 49036",41.90647,-85.04304,35,17
141,183,Somerset Mobile Home Park,https://www.mhvillage.com/parks/15569, Branch ,56,255,153,"117 Burch Road, Coldwater, MI, 49036",41.90647,-85.04304,35,17
142,184,Trail Tree Village,https://www.mhvillage.com/parks/15933, Branch ,143,309,154,"175 North Michigan Avenue, Coldwater, MI, 49036",41.90647,-85.04304,35,17
143,185,Lakecrest Mobile Court,https://www.mhvillage.com/parks/15568, Branch ,23,,155,"645 Lakecrest Drive, Coldwater, MI, 49036",41.90647,-85.04304,35,17
144,186,Turtle Lake,https://www.mhvillage.com/parks/42054, Branch ,,,156,"2101 9 Mile Road, Union City, MI, 49094",42.05908,-85.11405,35,17
145,187,Avra Estates II,https://www.mhvillage.com/parks/15718, Branch ,30,,157,"27 West Garfield Avenue, Coldwater, MI, 49036",41.90647,-85.04304,35,17
146,188,Mobile Manor Park,https://www.mhvillage.com/parks/15570, Branch ,29,,158,"104 First Street, Bronson, MI, 49028",41.87237,-85.15701,35,17
147,189,Apollo XI Mobile Home Park,https://www.mhvillage.com/parks/15578, Branch ,72,,159,"550 East Chicago Street, Coldwater, MI, 49036",41.90647,-85.04304,35,17
148,190,Cambridge Village,https://www.mhvillage.com/parks/15571, Branch ,32,,160,"748 Lott Road, Coldwater, MI, 49036",41.90647,-85.04304,35,17
149,191,Countryside Mobile Court,https://www.mhvillage.com/parks/15576, Branch ,24,,161,"191 North Fillmore Court, Coldwater, MI, 49036",41.90647,-85.04304,35,17
150,192,Avra Estates,https://www.mhvillage.com/parks/15573, Branch ,143,294,162,"11 West Garfield Avenue, Coldwater, MI, 49036",41.90647,-85.04304,35,17
151,193,Kinsley Mobile Home Park,https://www.mhvillage.com/parks/460, Branch ,20,,163,"587 Marshall Road, Coldwater, MI, 49036",41.90647,-85.04304,35,17
152,194,Cole's Chippewa Circle Mobile Home Park,https://www.mhvillage.com/parks/52245, Branch ,,,164,"356 Chippewa Drive, Sherwood, MI, 49089",42.00683,-85.21925,35,17
153,195,Green Acres Mobile Home Park,https://www.mhvillage.com/parks/52246, Branch ,,,165,"151 Wheatfield Drive, Sherwood, MI, 49089",42.00683,-85.21925,35,17
154,196,Indian Cove Mobile Home Park,https://www.mhvillage.com/parks/15575, Branch ,,,166,"2928 Matteson Lake, Bronson, MI, 49028",41.87237,-85.15701,35,17
155,197,Northmoor Estates,https://www.mhvillage.com/parks/37959, Branch ,,,167,"228 North Moor Drive, Coldwater, MI, 49036",41.90647,-85.04304,35,17
156,198,Thunderbird Village,https://www.mhvillage.com/parks/15524, Calhoun ,8,,175,"1145 Harmonia, Springfield, MI, 49015",42.26167,-85.23882,44,18
157,199,Hickory Hills Village,https://www.mhvillage.com/parks/15515, Calhoun ,283,380,168,"10450 Six Mile Road, Battle Creek, MI, 49014",42.30294,-85.10537,45,18
158,200,Bedford Hills,https://www.mhvillage.com/parks/15311, Calhoun ,339,,169,"110 Bejac Circle Drive, Battle Creek, MI, 49017",42.36071,-85.22936,44,18
159,201,Avenue A Mobile Home Park,https://www.mhvillage.com/parks/15365, Calhoun ,145,,170,"1267 Avenue A, Springfield, MI, 49015",42.26167,-85.23882,44,18
160,202,Creek Valley Mobile Home Park,https://www.mhvillage.com/parks/434, Calhoun ,166,,171,"79 Creek Valley Circle, Battle Creek, MI, 49017",42.39115,-85.19663,44,18
161,203,Glenmoor Village,https://www.mhvillage.com/parks/32836, Calhoun ,139,317,172,"3971 Capital Avenue SW #1, Battle Creek, MI, 49015",42.24515,-85.19336,45,18
162,204,Wildflower Crossing,https://www.mhvillage.com/parks/126426, Calhoun ,344,350,173,"1642 Alyssum Court, Albion, MI, 49224",42.26455,-84.77493,44,17
163,205,New Village Estates,https://www.mhvillage.com/parks/15733, Calhoun ,130,275,174,"430 South Byron, Homer, MI, 49245",42.15145,-84.82623,45,17
164,206,Avonwood Mobile Home Park,https://www.mhvillage.com/parks/15522, Calhoun ,55,,176,"953 East Michigan Avenue, Battle Creek, MI, 49017",42.39115,-85.19663,44,18
165,207,Birchwood Place Mobile Home Park,https://www.mhvillage.com/parks/15518, Calhoun ,70,295,177,"3500 Q Drive South, Athens, MI, 49011",42.10945,-85.22203,45,18
166,208,Lighthouse On The Lake,https://www.mhvillage.com/parks/38053, Calhoun ,788,,178,"1001 24 Mile Road, Homer, MI, 49245",42.15145,-84.82623,45,17
167,209,The Community of Rolling Hills,https://www.mhvillage.com/parks/15745, Calhoun ,343,349,179,"300 Morgan Road, Battle Creek, MI, 49017",42.39115,-85.19663,44,18
168,210,Twin Pines MHC,https://www.mhvillage.com/parks/15517, Calhoun ,73,,180,"2701 Calhoun Road, Albion, MI, 49224",42.2941,-84.78798,44,17
169,211,Twin Valley Mobile Home Village,https://www.mhvillage.com/parks/15523, Calhoun ,36,,181,"16555 F Drive South, Marshall, MI, 49068",42.26184,-84.94424,45,17
170,212,Spruce Tree Mobile Home Community,https://www.mhvillage.com/parks/15885, Calhoun ,80,288,182,"14200 - 18 1/2 Mile Road, Marshall, MI, 49068",42.26184,-84.94424,45,17
171,213,Bakers Mobile Home Park,https://www.mhvillage.com/parks/15310, Calhoun ,120,,183,"1030 East Columbia Avenue, Battle Creek, MI, 49015",42.26167,-85.23882,44,18
172,214,Valley Garden Trailer Park,https://www.mhvillage.com/parks/15525, Calhoun ,38,700,184,"897 East Michigan, Battle Creek, MI, 49017",42.39115,-85.19663,44,18
173,215,Evergreen Oak Forest,https://www.mhvillage.com/parks/15516, Calhoun ,103,,185,"20 Powell Street, Battle Creek, MI, 49014",42.30294,-85.10537,45,18
174,216,Sunrise Mobile Home Court,https://www.mhvillage.com/parks/431, Calhoun ,33,,186,"15011 West Michigan Avenue, Marshall, MI, 49068",42.26184,-84.94424,45,17
175,217,Harper Commons MHC,https://www.mhvillage.com/parks/126502, Calhoun ,,,187,"993 East Michigan Avenue, Battle Creek, MI, 49014",42.3109,-85.13804,45,18
176,218,Rainbow Estates Mobile Park,https://www.mhvillage.com/parks/15520, Calhoun ,,,188,"875 East Michigan Avenue, Marshall, MI, 49068",42.26184,-84.94424,45,17
177,219,Edwardsburg Estates,https://www.mhvillage.com/parks/15585, Cass ,109,,193,"69425 M-62, Edwardsburg, MI, 49112",41.7906,-86.08514,36,17
178,220,Colonial Acres Mobile Home Park,https://www.mhvillage.com/parks/15676, Cass ,108,370,189,"69205 Garver Lake, Edwardsburg, MI, 49112",41.7965,-86.04734,36,17
179,221,Beech Grove,https://www.mhvillage.com/parks/90393, Cass ,,,190,"51439 Michigan 40, Marcellus, MI, 49067",42.03379,-85.80274,36,17
180,222,Bluegill Lake MHP,https://www.mhvillage.com/parks/15730, Cass ,39,385,191,"400 East South Street, Marcellus, MI, 49067",42.03379,-85.80274,36,17
181,223,C&M Park,https://www.mhvillage.com/parks/15670, Cass ,26,,192,"70710 Elkhart Rd., Edwardsburg, MI, 49112",41.77132,-86.05088,36,17
182,224,Rustic Acres Mobile Home Park,https://www.mhvillage.com/parks/15746, Cass ,70,,194,"19250 Stateline Road, Edwardsburg, MI, 49112",41.81851,-86.01239,36,17
183,225,Wildwood Resort,https://www.mhvillage.com/parks/37442, Cass ,163,167,195,"23040 Phillips Road, Edwardsburg, MI, 49112",41.81851,-86.01239,36,17
184,226,Simmons Mobile Home Park,https://www.mhvillage.com/parks/15681, Cass ,,,196,"19311 Us Highway 12, Edwardsburg, MI, 49112",41.76878,-85.9411,36,17
185,227,Maple Grove Trailer Court,https://www.mhvillage.com/parks/15678, Cass ,75,,197,"59733 Decatur Road, Cassopolis, MI, 49031",41.90053,-85.99293,36,17
186,228,North Wayne Estates,https://www.mhvillage.com/parks/15917, Cass ,10,,198,"27139 Corwin Street, Dowagiac, MI, 49047",41.98832,-86.10795,37,17
187,229,Rema Mobile Home Park,https://www.mhvillage.com/parks/15679, Cass ,92,,199,"24050 North Shore Drive, Edwardsburg, MI, 49112",41.81851,-86.01239,36,17
188,230,Linden Mobile Home Park,https://www.mhvillage.com/parks/15673, Cass ,,,200,"19350 State Line Road, Edwardsburg, MI, 49112",41.81851,-86.01239,36,17
189,231,Bay Shore Estates Mobile Home Park,https://www.mhvillage.com/parks/15795, Emmet ,83,400,308,"7463 Old Us Highway 31, Lot 24, Petoskey, MI, 49770",45.34226,-84.9135,107,37
190,232,Charlevoix Estates,https://www.mhvillage.com/parks/15897, Charlevoix ,189,,203,"6685 M 66 North, Charlevoix, MI, 49720",45.27139,-85.2327,107,37
191,233,Lake Michigan Heights,https://www.mhvillage.com/parks/547, Charlevoix ,108,,204,"7400 Lakeview Drive, Charlevoix, MI, 49720",45.27139,-85.2327,107,37
192,235,Sun Outdoors Petoskey Bay Harbor,https://www.mhvillage.com/parks/126054, Emmet ,78,,310,"5505 Charlevoix Avenue, Petoskey, MI, 49770",45.35816,-85.05439,107,37
193,236,Petoskey KOA,https://www.mhvillage.com/parks/105759, Emmet ,,,312,"1800 North Us 31, Petoskey, MI, 49770",45.39633,-84.89247,107,37
194,237,Harbor Springs Estates,https://www.mhvillage.com/parks/558, Emmet ,68,,313,"629 East Lake Street, Harbor Springs, MI, 49740",45.544,-84.99149,107,37
195,238,Mountain View Estates,https://www.mhvillage.com/parks/15767, Otsego ,42,,955,"2225 Center Street, Boyne Falls, MI, 49713",45.20527,-84.8555,107,37
196,239,Radio City Village,https://www.mhvillage.com/parks/15793, Emmet ,44,,314,"1121 Lears Road, Petoskey, MI, 49770",45.34226,-84.9135,107,37
197,240,Chalet Estates,https://www.mhvillage.com/parks/15794, Emmet ,41,,315,"5669 Pickerel Lake Road, Petoskey, MI, 49770",45.34226,-84.9135,107,37
198,241,Huron Estates,https://www.mhvillage.com/parks/15184, Wayne ,806,629,1170,"22000 Inkster Road, Romulus, MI, 48174",42.20291,-83.34416,31,4
199,242,Town & Country Mobile Home Park,https://www.mhvillage.com/parks/15775, Presque Isle ,,,982,"2653 Vanyea Road, Cheboygan, MI, 49721",45.5755,-84.46807,106,37
200,243,Indian River Mobile Home Park,https://www.mhvillage.com/parks/15771, Cheboygan ,,,217,"5144 South Straits Highway, Indian River, MI, 49749",45.4228,-84.56745,106,37
201,244,Indian Village Park,https://www.mhvillage.com/parks/15988, Cheboygan ,,,218,"4726 Lanai Drive, Indian River, MI, 49749",45.4228,-84.56745,106,37
202,245,Larry's Trailer Court,https://www.mhvillage.com/parks/15773, Presque Isle ,,,986,"10692 North Black River Road, Cheboygan, MI, 49721",45.5755,-84.46807,106,37
203,246,Conway Commons,https://www.mhvillage.com/parks/128334, Emmet ,90,1200,306,"2959 Oden Rd, Alanson, MI, 49706",45.42702,-84.85377,107,37
204,247,Conway Commons,https://www.mhvillage.com/parks/128334, Emmet ,90,1200,309,"8523 Park Way, Alanson, MI, 49706",45.44418,-84.78671,107,37
205,248,Alanson Estates Noble Homes,https://www.mhvillage.com/parks/15797, Emmet ,30,,307,"6760 Us 31 North, Alanson, MI, 49706",45.4558,-84.78367,107,37
206,249,El Rancho Alanson RV Resort,https://www.mhvillage.com/parks/126084, Emmet ,137,,311,"6712 San Juan, Alanson, MI, 49706",45.44001,-84.77692,107,37
207,250,Shady Grove Village,https://www.mhvillage.com/parks/15855, Presque Isle ,,,979,"4128 Michigan, Onaway, MI, 49765",45.34678,-84.25729,106,37
208,251,Lake Superior Estates,https://www.mhvillage.com/parks/15780, Luce ,225,,640,"102 East 25th Avenue, Sault Sainte Marie, MI, 49783",46.4698,-84.34852,107,37
209,252,Blair Hastings Park Lake Superior State,https://www.mhvillage.com/parks/15779, Mackinac ,,,650,"1000 College Drive, Sault Sainte Marie, MI, 49783",46.37568,-84.30145,107,37
210,253,L & M Trailer Court,https://www.mhvillage.com/parks/550, Luce ,133,,644,"1804 West 18th Street, Sault Sainte Marie, MI, 49783",46.48215,-84.40096,107,37
211,254,Riverside Mobile Home Village,https://www.mhvillage.com/parks/15777, Mackinac ,60,,651,"2210 Riverside Drive, Sault Sainte Marie, MI, 49783",46.37568,-84.30145,107,37
212,255,Fornicola Trailer Park,https://www.mhvillage.com/parks/15778, Mackinac ,,,652,"2501 Ashmun Street, Sault Sainte Marie, MI, 49783",46.37568,-84.30145,107,37
213,257,Great Northern Mobile Home Park,https://www.mhvillage.com/parks/15824, Luce ,,,639,"M-28 Highway, Newberry, MI, 49868",46.45669,-85.41102,108,38
214,258,Meadows of Farwell,https://www.mhvillage.com/parks/15603, Clare ,48,340,232,"551 Grace Street, Farwell, MI, 48622",43.8212,-84.87874,100,34
215,259,Pleasant Valley Mobile Home Park,https://www.mhvillage.com/parks/15608, Clare ,,362,233,"600 West 5th Street, Clare, MI, 48617",43.82236,-84.78176,100,34
216,260,Cedar Shores,https://www.mhvillage.com/parks/16059, Missaukee ,,,753,"5916 Cedar Shores, Harrison, MI, 48625",44.03111,-84.84619,100,34
217,261,Hidden Hill Family Campground,https://www.mhvillage.com/parks/15727, Missaukee ,55,,754,"300 North Clare, Harrison, MI, 48625",44.03111,-84.84619,100,34
218,262,Harrison Estates,https://www.mhvillage.com/parks/15606, Missaukee ,50,,755,"2600 Mostetler Road, Harrison, MI, 48625",44.03111,-84.84619,100,34
219,263,Beech Tree Estates,https://www.mhvillage.com/parks/16044, Clare ,,,237,"7413 North Nottawa Road, Farwell, MI, 48622",43.8212,-84.87874,100,34
220,264,Loomis Resort,https://www.mhvillage.com/parks/15605, Osceola ,,,929,"10585 Rock Road, Lake, MI, 48632",43.83909,-85.015,100,34
221,265,Luke's Trailer Park,https://www.mhvillage.com/parks/15607, Clare ,,,239,"705 S Rainbow Dr, Clare, MI, 48617",43.85808,-84.72783,99,34
222,266,Parkers Trailer Park,https://www.mhvillage.com/parks/15604, Missaukee ,,,761,"3100 Long Lake Road, Harrison, MI, 48625",44.03111,-84.84619,100,34
223,267,Ruby's Mobile Home Park,https://www.mhvillage.com/parks/15609, Clare ,,,241,"10600 South Clare Avenue, Clare, MI, 48617",43.85808,-84.72783,99,34
224,268,Withii Trailer Park,https://www.mhvillage.com/parks/15610, Missaukee ,,,763,"1820 Hampton Road, Harrison, MI, 48625",44.03111,-84.84619,100,34
225,269,King Arthur's Court,https://www.mhvillage.com/parks/15064, Clinton ,425,599,243,"2201 East State Road, Lansing, MI, 48906",42.78265,-84.57672,77,28
226,270,Capital Crossings,https://www.mhvillage.com/parks/34271, Clinton ,275,,244,"13531 Declaration Court, Eagle, MI, 48822",42.83725,-84.75913,77,28
227,271,Cadgewith Farms,https://www.mhvillage.com/parks/15721, Clinton ,228,480,245,"2300 East State Road, Lansing, MI, 48906",42.78265,-84.57672,77,28
228,272,Valley Estates,https://www.mhvillage.com/parks/15101, Ingham ,148,310,435,"16751 Turner Road, Lansing, MI, 48906",42.77352,-84.551,77,28
229,273,The Meadows of St Johns,https://www.mhvillage.com/parks/15106, Clinton ,216,,246,"2265 W Parks Rd - Lot #1, Saint Johns, MI, 48879",43.00047,-84.58266,75,28
230,274,Quiet Cove,https://www.mhvillage.com/parks/15408, Shiawassee ,43,,1076,"12675 Colby Lake Road, Laingsburg, MI, 48848",42.87317,-84.38924,75,28
231,275,Kristana Mobile Home Park,https://www.mhvillage.com/parks/15213, Clinton ,165,396,248,"1110 East Coleman Road, Lansing, MI, 48906",42.78265,-84.57672,77,28
232,276,Maple Leaf Community,https://www.mhvillage.com/parks/32680, Shiawassee ,76,300,1082,"8701 East M-21, Ovid, MI, 48866",42.99048,-84.35524,71,28
233,277,Saint Johns Estates,https://www.mhvillage.com/parks/15105, Clinton ,112,,251,"609 North Morton Street, Saint Johns, MI, 48879",43.00047,-84.58266,75,28
234,278,Moon Lake Mobile Home Park,https://www.mhvillage.com/parks/15325, Shiawassee ,92,,1089,"12700 South Colby Lake Road, Laingsburg, MI, 48848",42.87317,-84.38924,75,28
235,279,Maple Valley Subdivision,https://www.mhvillage.com/parks/605, Shiawassee ,35,,1090,"Meridian Road - Po Box 135, Ovid, MI, 48866",42.99048,-84.35524,71,28
236,280,Westphalia Mobile Home Court,https://www.mhvillage.com/parks/15216, Clinton ,8,,254,"13606 Jason Rd, Westphalia, MI, 48894",42.91526,-84.79072,77,28
237,281,Park Lake Mobile Home Court,https://www.mhvillage.com/parks/15214, Clinton ,48,,255,"6335 Park Lake Road, Bath, MI, 48808",42.82693,-84.44378,75,28
238,282,Crosswinds Mobile Home Park,https://www.mhvillage.com/parks/15212, Clinton ,90,,256,"14073 South Us Highway 27, Dewitt, MI, 48820",42.81211,-84.54134,77,28
239,284,Hartwick Pines Mobile Home Estates,https://www.mhvillage.com/parks/15925, Oscoda ,52,,933,"4869 Brighton Circle, Grayling, MI, 49738",44.71357,-84.65051,105,36
240,285,Grayling Mobile Home Estates,https://www.mhvillage.com/parks/15906, Oscoda ,163,,937,"North Down River Road, Grayling, MI, 49738",44.71357,-84.65051,105,36
241,286,Timberly Village,https://www.mhvillage.com/parks/15783, Oscoda ,,,944,"243 Woodlawn Boulevard, Grayling, MI, 49738",44.71357,-84.65051,105,36
242,287,Aspen Village,https://www.mhvillage.com/parks/595, Otsego ,204,303,947,"204 Aspen Commons Drive, Gaylord, MI, 49735",44.99125,-84.6518,105,36
243,288,Nottingham Forest,https://www.mhvillage.com/parks/15851, Otsego ,74,480,948,"1665 West M-32, Gaylord, MI, 49735",44.99125,-84.6518,105,36
244,289,Sunset Estates of Gaylord LLC,https://www.mhvillage.com/parks/15853, Otsego ,20,550,949,"7346 Old 27 Hwy South, Vanderbilt, MI, 49795",44.9141,-84.69544,105,36
245,290,Higgins Lake East Campground and Mobile Home Park,https://www.mhvillage.com/parks/15860, Roscommon ,,,992,"2380 West Burdell Road, Roscommon, MI, 48653",44.48037,-84.61296,105,36
246,291,Higgins Lake Hide-a-way Mobile Home Park,https://www.mhvillage.com/parks/15857, Roscommon ,,,993,"6059 West Higgins Lake Drive, Higgins Lake, MI, 48627",44.46121,-84.7481,105,36
247,292,Log Haven Mobile Home Park,https://www.mhvillage.com/parks/15852, Otsego ,,,950,"273 Randolph Street, Gaylord, MI, 49735",44.99125,-84.6518,105,36
248,294,Wagon Wheel Estates,https://www.mhvillage.com/parks/15863, Roscommon ,,,999,"2720 West Higgins Lake Road, Roscommon, MI, 48653",44.48037,-84.61296,105,36
249,295,Woodland Estates,https://www.mhvillage.com/parks/345, Kalamazoo ,348,515,531,"4797 South 4th Street, Kalamazoo, MI, 49009",42.24645,-85.72582,40,19
250,296,Fair View Estates,https://www.mhvillage.com/parks/15785, Delta ,,,274,"1401 North 23rd Street, Escanaba, MI, 49829",45.76411,-87.07968,108,38
251,297,White Birch Village,https://www.mhvillage.com/parks/15789, Iron ,249,250,474,"W8079 S Us Hwy 2/141, Iron Mountain, MI, 49801",45.80907,-88.03536,110,38
252,298,Park Ridge,https://www.mhvillage.com/parks/15791, Iron ,94,,475,"1300 Michigan Avenue, Office, Iron Mountain, MI, 49801",45.80987,-88.04959,110,38
253,299,Rivers Bend Mobile Park,https://www.mhvillage.com/parks/15792, Iron ,51,,476,"N3905 Pine Mountain Rd, Iron Mountain, MI, 49801",45.94478,-87.96643,109,38
256,302,Kensington Meadows,https://www.mhvillage.com/parks/15873, Ingham ,290,,422,"4245 West Jolly Road, Lansing, MI, 48911",42.68314,-84.60191,74,21
257,303,Windsor Estates,https://www.mhvillage.com/parks/16025, Eaton ,470,390,287,"6661 Canal Road, Dimondale, MI, 48821",42.63992,-84.65103,76,21
258,304,Eaton Pine Village,https://www.mhvillage.com/parks/15956, Eaton ,147,396,285,"458 Eaton Pines Blvd, Eaton Rapids, MI, 48827",42.50937,-84.669,76,21
259,305,Butternut Creek,https://www.mhvillage.com/parks/27918, Eaton ,30,370,286,"801 Packard Highway, Charlotte, MI, 48813",42.56686,-84.819,76,21
260,306,Grand Ledge Ravines,https://www.mhvillage.com/parks/15217, Eaton ,218,363,288,"855 West Jefferson Street, Grand Ledge, MI, 48837",42.74847,-84.76911,76,21
261,307,Park Terrace MHC,https://www.mhvillage.com/parks/15226, Eaton ,158,,289,"3435 West Saint Joseph Street, Lansing, MI, 48917",42.71887,-84.63234,76,21
262,308,Century Park,https://www.mhvillage.com/parks/15222, Eaton ,230,435,290,"215 North Canal Road, Lansing, MI, 48917",42.71887,-84.63234,76,21
263,309,Maple Knoll Mobile Home Community,https://www.mhvillage.com/parks/15241, Eaton ,49,385,291,"1716 E Lansing Road, Charlotte, MI, 48813",42.58416,-84.80285,76,21
264,310,Mill Pond an FR Community,https://www.mhvillage.com/parks/15076, Ingham ,356,435,431,"1500 Old Mill Lane, Lansing, MI, 48911",42.68109,-84.55825,74,21
265,311,Stonegate,https://www.mhvillage.com/parks/15109, Ingham ,278,,432,"2700 Eaton Rapids, Lansing, MI, 48911",42.65876,-84.59355,74,21
266,312,Country Village,https://www.mhvillage.com/parks/15240, Eaton ,100,,294,"7781 West Grand River Highway, Grand Ledge, MI, 48837",42.74847,-84.76911,76,21
267,313,Grand Oaks Village,https://www.mhvillage.com/parks/15061, Eaton ,168,,295,"817 North Clinton Street, Grand Ledge, MI, 48837",42.74847,-84.76911,76,21
268,314,Hi-Way Mobile Haven,https://www.mhvillage.com/parks/15219, Eaton ,67,,296,"2600 Lansing Road, Charlotte, MI, 48813",42.56686,-84.819,76,21
269,315,Independence Commons,https://www.mhvillage.com/parks/15911, Eaton ,340,,297,"1776 Constitution Circle, Potterville, MI, 48876",42.6437,-84.73949,76,21
270,316,Meadows Mobile Home Park,https://www.mhvillage.com/parks/15660, Gratiot ,93,,389,"411 South Grover Street, Alma, MI, 48801",43.37908,-84.65708,92,34
271,317,Valley Springs Mobile Home Park,https://www.mhvillage.com/parks/15220, Eaton ,81,350,299,"4723 Hartel Road, Potterville, MI, 48876",42.6437,-84.73949,76,21
272,318,Belle Vista Mobile Home Park,https://www.mhvillage.com/parks/21576, Eaton ,206,,300,"509 Belle Vista Drive, Bellevue, MI, 49021",42.42874,-85.09764,43,18
273,319,Bellevue Mobile Home Park,https://www.mhvillage.com/parks/15519, Eaton ,76,,301,"23951 15 Mile Road, Bellevue, MI, 49021",42.42874,-85.09764,43,18
274,320,Hickory Haven Mobile Home Park,https://www.mhvillage.com/parks/15218, Eaton ,27,,302,"420 Haven Street, Eaton Rapids, MI, 48827",42.50937,-84.669,76,21
275,321,Lawrence Manor Mobile Home Park,https://www.mhvillage.com/parks/280, Eaton ,30,,304,"629 West Lawrence Avenue, Charlotte, MI, 48813",42.56686,-84.819,76,21
276,322,Riverwood,https://www.mhvillage.com/parks/106664, Eaton ,,,305,"501 South Jefferson St, Bellevue, MI, 49021",42.44934,-85.01063,43,21
277,323,Pineview Estates,https://www.mhvillage.com/parks/15742, Genesee ,1011,400,316,"6152 N. Genesee Rd., Flint, MI, 48506",43.06496,-83.62216,67,26
278,324,Broadview Estates,https://www.mhvillage.com/parks/289, Genesee ,497,,317,"4250 North State Road, Davison, MI, 48423",43.04208,-83.52223,68,26
279,325,Cider Mill Crossings,https://www.mhvillage.com/parks/34419, Genesee ,327,,318,"9900 Townsquare Boulevard, Fenton, MI, 48430",42.77042,-83.74655,72,22
280,326,Maple Run,https://www.mhvillage.com/parks/15991, Genesee ,145,,320,"2000 Maple Run Boulevard, Clio, MI, 48420",43.16502,-83.71659,97,26
281,327,Fisherman's Cove,https://www.mhvillage.com/parks/15532, Genesee ,162,,321,"4441 Jena Lane, Flint, MI, 48507",42.95973,-83.7225,70,27
282,328,Pine Ridge,https://www.mhvillage.com/parks/15741, Genesee ,195,,323,"9348 Silver Lake Road, Linden, MI, 48451",42.79415,-83.82942,71,22
283,329,Tyrone Woods Manufactured Home Community,https://www.mhvillage.com/parks/67222, Genesee ,403,450,325,"8378 Hogan Rd, Fenton, MI, 48430",42.77042,-83.74655,72,22
284,330,Creek Wood,https://www.mhvillage.com/parks/15970, Genesee ,336,,326,"3440 Creekside Boulevard, Burton, MI, 48519",42.97788,-83.62682,68,27
285,331,Green Briar Community,https://www.mhvillage.com/parks/15968, Genesee ,345,350,342,"4070 Green Briar Boulevard, Burton, MI, 48529",42.97458,-83.66285,68,27
286,332,Timber Heights,https://www.mhvillage.com/parks/15924, Genesee ,221,,328,"1168 N. Oak Rd., Davison, MI, 48423",43.0264,-83.49335,68,26
287,333,Hawaiian Gardens/Holly Village,https://www.mhvillage.com/parks/15549, Oakland ,233,,895,"4261 Grange Hall Road Site 1B, Holly, MI, 48442",42.8111,-83.6147,72,22
288,335,Swartz Creek Estates,https://www.mhvillage.com/parks/15998, Genesee ,176,549,333,"73 Ashley Circle, Swartz Creek, MI, 48473",42.96219,-83.84656,69,27
289,337,Grand Blanc Crossing,https://www.mhvillage.com/parks/15910, Genesee ,478,,335,"8225 Embury Road, Grand Blanc, MI, 48439",42.92103,-83.64743,72,27
290,338,Lake Fenton Estates,https://www.mhvillage.com/parks/37972, Genesee ,135,320,337,"11429 Harbor Cove Drive, Fenton, MI, 48430",42.85895,-83.71818,72,22
291,339,South Valley Estates,https://www.mhvillage.com/parks/437, Genesee ,116,305,339,"37 Bellwood Drive, Swartz Creek, MI, 48473",42.96076,-83.81032,69,27
292,340,Highlands Estates,https://www.mhvillage.com/parks/15370, Genesee ,635,437,340,"2197 East Mount Morris Road, Mount Morris, MI, 48458",43.12576,-83.68609,67,26
293,341,Flushing Estates,https://www.mhvillage.com/parks/313, Genesee ,279,,343,"7416 Gillette Road, Flushing, MI, 48433",43.08096,-83.86068,69,27
294,342,Linden Place,https://www.mhvillage.com/parks/15333, Genesee ,162,,344,"4192 South Linden Road, Flint, MI, 48507",42.96585,-83.77672,69,27
295,343,Swartz Creek Meadows,https://www.mhvillage.com/parks/359, Genesee ,584,412,345,"4101 Sheridan Road, Lennon, MI, 48449",42.99756,-83.94851,71,28
296,360,Marshall's Crossing,https://www.mhvillage.com/parks/16009, Saginaw ,200,375,1009,"12050 Trident Boulevard, Montrose, MI, 48457",43.21973,-83.93292,71,26
297,361,Meadowbrook Manor Estates,https://www.mhvillage.com/parks/300, Genesee ,401,370,341,"7280 West Mt. Morris Road, Flushing, MI, 48433",43.08096,-83.86068,69,27
298,377,Camelot Villa,https://www.mhvillage.com/parks/15094, Macomb ,712,,661,"17111 Hall Road, Macomb, MI, 48044",42.62826,-82.95044,60,11
299,414,Cloverland Mobile Home Park,https://www.mhvillage.com/parks/15801, Ontonagon ,,,915,"601 Garvey Street, Ironwood, MI, 49938",46.48946,-90.204,110,38
300,415,Ironwood Estates Mobile Home Community,https://www.mhvillage.com/parks/111034, Ontonagon ,,,918,"N10356 Lake Rd, Ironwood, MI, 49938",46.47251,-90.15612,110,38
301,416,Kristella's Mobile Home Park,https://www.mhvillage.com/parks/15800, Ontonagon ,,,919,"402 Sunday Lake, Wakefield, MI, 49968",46.5147,-89.89452,110,38
306,422,Evergreen Estates,https://www.mhvillage.com/parks/15639, Tuscola ,92,319,1094,"2115 East Evergreen Dr., Caro, MI, 48723",43.49228,-83.38507,97,25
311,427,Pipers Mobile Village,https://www.mhvillage.com/parks/573, Ontonagon ,,,911,"Trailer Court Road, White Pine, MI, 49971",46.72666,-89.54651,110,38
312,428,King's Court,https://www.mhvillage.com/parks/521, Leelanau ,639,,586,"1585 Ray Blvd., Traverse City, MI, 49686",44.72831,-85.60562,103,37
313,429,Cherrywood Village Farms,https://www.mhvillage.com/parks/15884, Wexford ,193,210,1187,"2451 M-113 East, Kingsley, MI, 49649",44.56662,-85.53485,104,37
314,430,Timber Ridge,https://www.mhvillage.com/parks/127472, Leelanau ,31,358,595,"4050 E Hammond Rd, Traverse City, MI, 49686",44.71424,-85.49447,103,37
315,431,Evergreen Village,https://www.mhvillage.com/parks/15580, Gratiot ,183,,384,"21 Evergreen Drive, Saint Louis, MI, 48880",43.39773,-84.62352,92,34
316,432,Alma Mobile Home Park,https://www.mhvillage.com/parks/15659, Gratiot ,46,,382,"315 Linwood Avenue, Alma, MI, 48801",43.37808,-84.63972,92,34
317,433,Breckenridge Mobile Home Park,https://www.mhvillage.com/parks/15658, Gratiot ,46,,383,"452 Elm Street, Breckenridge, MI, 48615",43.43056,-84.46877,93,34
318,434,Nesen's Countryside Park,https://www.mhvillage.com/parks/15948, Gratiot ,77,300,385,"600 Cheesman Road, Saint Louis, MI, 48880",43.45166,-84.56312,92,34
319,435,Scotsdale Estates,https://www.mhvillage.com/parks/519, Gratiot ,189,427,386,"3382 Alma Drive, Alma, MI, 48801",43.37908,-84.65708,92,34
320,436,Timber Country MHP,https://www.mhvillage.com/parks/15662, Gratiot ,32,,387,"10401 West Monroe Road, Elwell, MI, 48832",43.40705,-84.81317,92,34
321,437,Meadow Lane Estates,https://www.mhvillage.com/parks/15661, Gratiot ,128,,388,"401 South Saint Johns Street, Ithaca, MI, 48847",43.27706,-84.56826,92,34
322,438,Woodcrest Mobile Home Park,https://www.mhvillage.com/parks/15663, Gratiot ,34,,390,"953 East Monroe Road, Saint Louis, MI, 48880",43.45166,-84.56312,92,34
323,439,Riley's Mobile Home Court,https://www.mhvillage.com/parks/15665, Hillsdale ,50,325,391,"3700 North Hillsdale Road, Hillsdale, MI, 49242",41.86512,-84.60385,35,16
324,440,Hillsdale,https://www.mhvillage.com/parks/475, Hillsdale ,170,,393,"2856 Carleton Road, Hillsdale, MI, 49242",41.93985,-84.64735,35,16
325,441,Hillside Acres MHC,https://www.mhvillage.com/parks/494, Hillsdale ,42,250,394,"5200 Bankers Road, Reading, MI, 49274",41.84686,-84.7284,35,17
326,442,Somerset Centre Estates,https://www.mhvillage.com/parks/496, Hillsdale ,310,365,395,"12851 East Chicago Road, Somerset Center, MI, 49282",42.0406,-84.39641,35,16
327,443,Southern Belle Mobile Community,https://www.mhvillage.com/parks/37607, Hillsdale ,14,185,396,"2722 West Card Road, Hillsdale, MI, 49242",41.86512,-84.60385,35,16
328,444,West Village Mobile Home Park,https://www.mhvillage.com/parks/37796, Hillsdale ,16,,397,"8800 Market Street, Pittsford, MI, 49271",41.85495,-84.45733,35,16
329,445,Saint Joe Mobile Park,https://www.mhvillage.com/parks/15664, Hillsdale ,12,,398,"310 West Saint Joe Street, Litchfield, MI, 49252",42.02898,-84.75346,35,17
330,446,Ramblewood Mobile Home Park,https://www.mhvillage.com/parks/15666, Hillsdale ,30,,399,"4091 State Road, Hillsdale, MI, 49242",41.86512,-84.60385,35,16
331,447,Bayside Estates,https://www.mhvillage.com/parks/561, Huron ,74,266,407,"2420 Pinetree Drive, Sebewaing, MI, 48759",43.73981,-83.39244,98,25
332,448,Clarkston Riverview Mobile Court,https://www.mhvillage.com/parks/566, Huron ,36,250,408,"4599 Pigeon Road, Elkton, MI, 48731",43.83306,-83.16145,98,25
333,449,Huron Estates Mobile Home Village,https://www.mhvillage.com/parks/15811, Huron ,50,315,409,"163 Nelson Street, Harbor Beach, MI, 48441",43.80169,-82.73358,98,25
334,450,Misty Meadows,https://www.mhvillage.com/parks/559, Huron ,27,,410,"1723 South Vandyke, Bad Axe, MI, 48413",43.7882,-83.06817,98,25
335,451,Port Austin Estates,https://www.mhvillage.com/parks/15814, Huron ,36,,411,"M 25 & Larned Road Box 250, Port Austin, MI, 48467",44.00348,-82.96883,98,25
336,452,Summerwood Estates,https://www.mhvillage.com/parks/564, Huron ,80,,412,"162 Charlotte Street, Bad Axe, MI, 48413",43.78782,-82.99111,98,25
337,453,Clarkson Pines Mobile Home Village,https://www.mhvillage.com/parks/15810, Huron ,,,413,"865 South Vandyke Road, Bad Axe, MI, 48413",43.80155,-83.01907,98,25
338,454,Mel-O-Day Acres Mobile Home Park,https://www.mhvillage.com/parks/15807, Huron ,40,,414,"3193 Port Austin Road, Port Austin, MI, 48467",44.00348,-82.96883,98,25
339,455,Whalen's Grindstone Park,https://www.mhvillage.com/parks/16049, Huron ,34,,415,"3373 Pointe Aux Barques, Port Austin, MI, 48467",44.00348,-82.96883,98,25
340,456,Sand Point Corners,https://www.mhvillage.com/parks/15812, Huron ,,,416,"7910 Port Austin Road, Pigeon, MI, 48755",43.83991,-83.30276,98,25
341,457,Caseville County Park,https://www.mhvillage.com/parks/16001, Huron ,,,417,"6400 Main Street, Caseville, MI, 48725",43.94751,-83.2214,98,25
342,458,Caseville Resort and Marina,https://www.mhvillage.com/parks/106402, Huron ,,,418,"6450 Riverside Dr, Caseville, MI, 48725",43.9441,-83.26923,98,25
343,459,Charlie's Place,https://www.mhvillage.com/parks/15809, Huron ,,,419,"11860 Kilmanagh Road, Sebewaing, MI, 48759",43.73981,-83.39244,98,25
344,460,Farmers Mobile Park,https://www.mhvillage.com/parks/15808, Huron ,,,420,"6351 Main Street, Caseville, MI, 48725",43.94751,-83.2214,98,25
345,461,Oak Grove,https://www.mhvillage.com/parks/54393, Huron ,,,421,"3341 Port Austin Road, Port Austin, MI, 48467",44.00348,-82.96883,98,25
346,462,Hamlin,https://www.mhvillage.com/parks/15107, Ingham ,209,,423,"5325 Van Orden Road, Webberville, MI, 48892",42.63604,-84.15417,73,22
347,463,Mason Manor,https://www.mhvillage.com/parks/275, Ingham ,269,355,427,"2179 Hull Road, Mason, MI, 48854",42.58138,-84.46032,73,21
348,464,Oak Island Village,https://www.mhvillage.com/parks/15714, Ingham ,250,420,424,"16430  Park Lake Road, East Lansing, MI, 48823",42.76324,-84.43861,75,28
349,465,Leslie Estates,https://www.mhvillage.com/parks/15231, Ingham ,78,,426,"714 Mill Street, Leslie, MI, 49251",42.46997,-84.41181,73,21
350,466,Sycamore Village,https://www.mhvillage.com/parks/233, Ingham ,396,428,425,"900 West Columbia Road, Mason, MI, 48854",42.58138,-84.46032,73,21
351,467,Dutch Hills,https://www.mhvillage.com/parks/277, Ingham ,278,428,428,"16400 Upton Road, East Lansing, MI, 48823",42.76324,-84.43861,75,28
352,468,Village Square ,https://www.mhvillage.com/parks/15229, Ingham ,100,,429,"875 West Grand River Avenue, Williamston, MI, 48895",42.68861,-84.26846,73,28
353,469,Delhi Manor,https://www.mhvillage.com/parks/15050, Ingham ,286,382,430,"4075 East Holt Road, Holt, MI, 48842",42.64033,-84.50636,74,21
354,470,Valley Brook Mobile Home Estates,https://www.mhvillage.com/parks/15228, Ingham ,51,,433,"1560 North Eifert Road, Holt, MI, 48842",42.63978,-84.5433,74,21
355,471,Falcon Pointe,https://www.mhvillage.com/parks/32341, Ingham ,244,,434,"555 Quarterhorse Road, East Lansing, MI, 48823",42.76324,-84.43861,75,28
356,472,"Webbervilla, LLC",https://www.mhvillage.com/parks/15232, Ingham ,174,,436,"400 West Grand River Avenue, Webberville, MI, 48892",42.64479,-84.17841,73,22
357,473,Williamston Lakes,https://www.mhvillage.com/parks/15913, Ingham ,71,425,437,"2300 East Grand River, Williamston, MI, 48895",42.68861,-84.26846,73,28
358,474,Windmill Park,https://www.mhvillage.com/parks/15110, Ingham ,484,390,438,"1433 Eifert Road, Holt, MI, 48842",42.63978,-84.5433,74,21
359,475,Willow Village Mobile Home Park,https://www.mhvillage.com/parks/15533, Ingham ,45,,439,"2445 East Grand River, Williamston, MI, 48895",42.68861,-84.26846,73,28
360,476,Knolls Of Hamlin,https://www.mhvillage.com/parks/37739, Ingham ,23,,440,"5247 Van Orden, Webberville, MI, 48892",42.64479,-84.17841,73,22
361,477,Sunset Mobile Home Park,https://www.mhvillage.com/parks/15648, Sanilac ,105,295,1071,"854 West Sanilac Road, Sandusky, MI, 48471",43.43036,-82.86887,98,25
362,478,Country Manor Mobile Home Park,https://www.mhvillage.com/parks/15224, Ingham ,39,,442,"4400 Edgar Road, Leslie, MI, 49251",42.46997,-84.41181,73,21
363,479,Winslow's Mobile Home Terrace,https://www.mhvillage.com/parks/15230, Ingham ,72,,443,"734 West Grand River Avenue, Okemos, MI, 48864",42.70499,-84.40207,73,28
364,480,Sherwood Forest Manufactured Home Community,https://www.mhvillage.com/parks/15874, Ionia ,240,,444,"1133 Yeomans Street, Ionia, MI, 48846",42.98037,-85.08586,78,33
365,481,Sunset Ridge,https://www.mhvillage.com/parks/32569, Ionia ,190,409,445,"7204 East Grand River Avenue, Portland, MI, 48875",42.85464,-84.9269,78,33
366,482,Canterbury Estates,https://www.mhvillage.com/parks/602, Ionia ,290,391,448,"360 East Tuttle, Ionia, MI, 48846",42.95113,-85.06619,78,33
367,483,Pine Haven Estates,https://www.mhvillage.com/parks/15904, Ionia ,50,800,446,"10400 Pewamo Road, Pewamo, MI, 48873",42.99322,-84.83829,93,33
368,484,Wellington Estates,https://www.mhvillage.com/parks/15751, Wayne ,410,,1177,"16031 Beech Daly Road, Taylor, MI, 48180",42.22557,-83.26855,29,1
369,485,Cedar Hill Trailer Park,https://www.mhvillage.com/parks/15691, Ionia ,13,250,449,"11211 East Nickleplate Road, Pewamo, MI, 48873",42.99322,-84.83829,93,33
370,486,Evergreen Mobile Home Community,https://www.mhvillage.com/parks/461, Ionia ,110,335,450,"2096 North State Road, Ionia, MI, 48846",42.98166,-85.0551,78,33
371,487,Parkview Estates,https://www.mhvillage.com/parks/15682, Ionia ,75,365,451,"9203 Nelson Road, Portland, MI, 48875",42.85464,-84.9269,78,33
372,488,Woodcreek Mobile Estates,https://www.mhvillage.com/parks/15684, Ionia ,30,,452,"6600 North State Road, Orleans, MI, 48865",43.07627,-85.10939,91,33
373,489,Glenview Mobile Home Park,https://www.mhvillage.com/parks/15690, Ionia ,13,245,453,"4090 Jackson Road, Saranac, MI, 48881",42.93399,-85.20615,78,18
374,490,Grieves Trailer Park,https://www.mhvillage.com/parks/15685, Ionia ,5,,454,"178 Washington Street, Saranac, MI, 48881",42.93399,-85.20615,78,18
375,491,Long Lake Mobile Home Estates,https://www.mhvillage.com/parks/504, Ionia ,25,,456,"2701 West Long Lake Road, Orleans, MI, 48865",43.07627,-85.10939,91,33
376,492,Pine View Trailer Park,https://www.mhvillage.com/parks/15683, Ionia ,20,,457,"6385 Whites Bride Road, Belding, MI, 48809",43.04999,-85.22343,91,33
377,493,Hidden Valley Mobile Home Park,https://www.mhvillage.com/parks/15689, Ionia ,50,,458,"3856 South Stage Road, Ionia, MI, 48846",42.98166,-85.0551,78,33
378,494,West Wind Court,https://www.mhvillage.com/parks/15686, Ionia ,11,,459,"5448 West Grand River Ave, Portland, MI, 48875",42.85464,-84.9269,78,33
379,495,Carl Chase,https://www.mhvillage.com/parks/16000, Ionia ,,,460,"2020 Johnson Road, Saranac, MI, 48881",42.93399,-85.20615,78,18
380,496,Schmid Farm Estates,https://www.mhvillage.com/parks/87313, Ionia ,14,,461,"5590 N State Road, Orleans, MI, 48865",43.07627,-85.10939,91,33
381,497,Sunset View Mobile Home Park,https://www.mhvillage.com/parks/15692, Ionia ,35,,462,"926 Hill Street, Portland, MI, 48875",42.85464,-84.9269,78,33
382,498,Slater's Mobile Home Village,https://www.mhvillage.com/parks/530, Ionia ,,,463,"728 Jordan Lake Avenue, Lake Odessa, MI, 48849",42.80836,-85.14312,78,18
383,500,Northern Pines,https://www.mhvillage.com/parks/15995, Oscoda ,30,700,935,"6720 South Drive, Hale, MI, 48739",44.38296,-83.79446,99,36
384,501,White Pine Ridge,https://www.mhvillage.com/parks/15817, Oscoda ,,,946,"6721 South Drive, Hale, MI, 48739",44.39344,-83.81642,99,36
386,503,The Crossings On Broadway,https://www.mhvillage.com/parks/16022, Isabella ,225,,480,"5402 East Broadway Road, Mount Pleasant, MI, 48858",43.60401,-84.74175,92,34
387,504,Summerhill Village,https://www.mhvillage.com/parks/15633, Isabella ,305,285,481,"5280 Mission Road, Mount Pleasant, MI, 48858",43.61887,-84.79772,92,34
388,505,Oakview Mobile Estates,https://www.mhvillage.com/parks/15631, Isabella ,46,,482,"1800 East Jordan Road, Mount Pleasant, MI, 48858",43.61887,-84.79772,92,34
389,506,Broadway Acres,https://www.mhvillage.com/parks/15720, Isabella ,71,,483,"5400 Kay Street, Mount Pleasant, MI, 48858",43.608,-84.73948,92,34
390,507,Country Place Park,https://www.mhvillage.com/parks/15634, Isabella ,66,,484,"4151 East Jordan Road, Mount Pleasant, MI, 48858",43.61887,-84.79772,92,34
391,508,Isabella Village,https://www.mhvillage.com/parks/15905, Isabella ,170,400,479,"5232 East Broadway Road, Mount Pleasant, MI, 48858",43.60358,-84.74468,92,34
392,509,Maple View Estates East,https://www.mhvillage.com/parks/15635, Isabella ,136,200,485,"1955 S. Chippewa Road, Mount Pleasant, MI, 48858",43.61224,-84.62801,92,34
393,510,Mount Pleasant Mobile Home Park,https://www.mhvillage.com/parks/15588, Isabella ,120,,486,"505 South Bradley Rd., Mount Pleasant, MI, 48858",43.61887,-84.79772,92,34
394,511,Broomfield Valley Mobile Home Park,https://www.mhvillage.com/parks/15587, Isabella ,85,,487,"6553 West Remus Road, Mount Pleasant, MI, 48858",43.61887,-84.79772,92,34
395,512,Alexander's Mobile Village,https://www.mhvillage.com/parks/33825, Isabella ,20,,488,"8649 South Loomis Road, Shepherd, MI, 48883",43.56428,-84.697,92,34
396,513,Maple View Estates West,https://www.mhvillage.com/parks/15632, Isabella ,37,,489,"10749 East Pickard, Mount Pleasant, MI, 48858",43.61887,-84.79772,92,34
397,514,Westwind Mobile Home Park,https://www.mhvillage.com/parks/15636, Isabella ,,,490,"3640 East Rosebush Road, Rosebush, MI, 48878",43.70936,-84.76817,92,34
398,515,Sherman Oaks,https://www.mhvillage.com/parks/347, Jackson ,366,,492,"1144 Sherman Blvd., Jackson, MI, 49201",42.33629,-84.41924,45,14
399,516,Windham Hills,https://www.mhvillage.com/parks/15980, Jackson ,420,,493,"4020 County Farm Road, Jackson, MI, 49201",42.2594,-84.37935,46,14
400,517,Hillanlake Village Mobile Home Park,https://www.mhvillage.com/parks/15377, Jackson ,151,,495,"3998 Sunset Drive, Brooklyn, MI, 49230",42.09382,-84.22136,47,14
401,519,Coachman's Cove,https://www.mhvillage.com/parks/399, Jackson ,246,385,496,"6600 Portage Lake Road, Munith, MI, 49259",42.37239,-84.24817,48,14
402,520,Cozy Manufactured Home Community,https://www.mhvillage.com/parks/397, Jackson ,206,,494,"1259 East Mcdevitt Road, Jackson, MI, 49203",42.19499,-84.38051,47,14
403,521,Spring Valley Estates,https://www.mhvillage.com/parks/394, Jackson ,94,370,499,"121 Split Rail Trail, Hanover, MI, 49241",42.09807,-84.54466,45,14
404,522,Three Oaks Estates,https://www.mhvillage.com/parks/15540, Jackson ,44,,500,"13380 Michigan 60, Concord, MI, 49237",42.1768,-84.64385,45,17
405,523,Spring Harbor,https://www.mhvillage.com/parks/5736, Jackson ,81,,501,"271 Green St., Springport, MI, 49284",42.37553,-84.68605,45,17
406,524,Sun Valley Estates,https://www.mhvillage.com/parks/344, Jackson ,184,,502,"301 Mantle Avenue, Jackson, MI, 49202",42.25854,-84.37015,46,14
407,525,The Reserves,https://www.mhvillage.com/parks/439, Jackson ,304,418,503,"3999 Sherwood Lakes Boulevard, Jackson, MI, 49201",42.29109,-84.44512,46,14
408,526,Arbor Village,https://www.mhvillage.com/parks/15376, Jackson ,266,360,504,"7940 South Circle Drive, Parma, MI, 49269",42.29845,-84.59764,45,14
409,527,Indian Village,https://www.mhvillage.com/parks/15351, Jackson ,294,,505,"2600 East South Street, Jackson, MI, 49201",42.2594,-84.37935,46,14
410,528,Jackson Mobile Home Park,https://www.mhvillage.com/parks/15538, Jackson ,80,460,497,"2240 Brooklyn Road, Jackson, MI, 49203",42.21266,-84.39559,47,14
411,529,Michigan Avenue Estates,https://www.mhvillage.com/parks/15438, Jackson ,39,,506,"3921 West Michigan Avenue, Jackson, MI, 49202",42.27538,-84.40753,46,14
412,530,Pleasant Lake Mobile Home Court,https://www.mhvillage.com/parks/15535, Jackson ,57,,507,"11711 Bunkerhill Road, Pleasant Lake, MI, 49272",42.38781,-84.34844,45,14
413,531,Shady Park Mobile Home Court,https://www.mhvillage.com/parks/15534, Jackson ,23,,508,"4000 East South Street, Jackson, MI, 49201",42.2594,-84.37935,46,14
414,532,Walnut Ridge,https://www.mhvillage.com/parks/15962, Jackson ,299,,509,"3001 West Parnall Road, Jackson, MI, 49201",42.2594,-84.37935,46,14
415,533,Sherwood Forest,https://www.mhvillage.com/parks/40284, Jackson ,200,,510,"7945 Dunn Road, Munith, MI, 49259",42.37239,-84.24817,48,14
416,534,Miller Trailer Village,https://www.mhvillage.com/parks/15536, Jackson ,55,,511,"3500 South Dearing Road, Spring Arbor, MI, 49283",42.20021,-84.56956,45,14
417,535,Vinings Trailer Park,https://www.mhvillage.com/parks/32872, Jackson ,199,,512,"105 Portage Lake Road, Munith, MI, 49259",42.37239,-84.24817,48,14
418,536,Andry's On The Lake,https://www.mhvillage.com/parks/16052, Jackson ,160,,513,"7740 Mount Hope Road, Grass Lake, MI, 49240",42.28988,-84.19142,46,14
419,546,Wyngate Farms,https://www.mhvillage.com/parks/15870, Kalamazoo ,333,400,514,"5560 Al Sabo Drive, Kalamazoo, MI, 49009",42.30008,-85.67871,40,19
420,547,Colonial Manor,https://www.mhvillage.com/parks/15541, Kalamazoo ,195,,523,"5500 West Kl Avenue, Kalamazoo, MI, 49009",42.28097,-85.65886,40,19
421,548,Saddlebrook Farms,https://www.mhvillage.com/parks/16006, Kalamazoo ,147,410,515,"5053 S. Fourth, Kalamazoo, MI, 49009",42.30008,-85.67871,40,19
422,549,Hillcrest Acres,https://www.mhvillage.com/parks/15868, Kalamazoo ,150,,517,"3205 Douglas Ave., Kalamazoo, MI, 49004",42.32271,-85.60429,41,19
423,550,Weatherstone Village Community,https://www.mhvillage.com/parks/15977, Kalamazoo ,93,608,518,"5210 Marsh Arbor Trail, Kalamazoo, MI, 49004",42.35437,-85.57046,42,19
424,551,Colonial Acres,https://www.mhvillage.com/parks/441, Kalamazoo ,612,,524,"5374 E. Deadwood Drive, Portage, MI, 49002",42.24031,-85.54112,41,19
425,552,Royal Estates,https://www.mhvillage.com/parks/15341, Kalamazoo ,183,454,519,"8300 Ravine Road, Kalamazoo, MI, 49009",42.30008,-85.67871,40,19
426,553,Fountain Springs,https://www.mhvillage.com/parks/586, Kalamazoo ,327,460,520,"1410 South 9th Street, Kalamazoo, MI, 49009",42.30008,-85.67871,40,19
427,554,Pavilion Estates MHC,https://www.mhvillage.com/parks/15339, Kalamazoo ,531,369,521,"6830 E N Avenue, Kalamazoo, MI, 49048",42.24486,-85.49586,42,19
428,555,Huntington Run,https://www.mhvillage.com/parks/15940, Kalamazoo ,175,,527,"6255 Cranbrook Lane, Kalamazoo, MI, 49009",42.25554,-85.67135,40,19
429,556,Saddlebrook Village,https://www.mhvillage.com/parks/48601, Kalamazoo ,142,,522,"503 South Fourth, Kalamazoo, MI, 49009",42.30008,-85.67871,40,19
430,557,Twinleaf,https://www.mhvillage.com/parks/15335, Kalamazoo ,185,849,525,"3614 Stadium Drive, Kalamazoo, MI, 49008",42.26511,-85.61897,41,19
431,558,Americana Estates,https://www.mhvillage.com/parks/15497, Kalamazoo ,161,393,526,"1802 Tray Lane, Kalamazoo, MI, 49006",42.3008,-85.62484,41,19
432,559,Sugarloaf Mobile Home Park,https://www.mhvillage.com/parks/15488, Kalamazoo ,57,367,528,"11443 Bonnie Dr, Schoolcraft, MI, 49087",42.15079,-85.62805,42,19
433,560,Evergreen Park,https://www.mhvillage.com/parks/419, Kalamazoo ,76,,529,"182 East D Avenue, Kalamazoo, MI, 49009",42.30008,-85.67871,40,19
434,561,Richland MHC,https://www.mhvillage.com/parks/417, Kalamazoo ,45,,530,"9604 East M-89, Richland, MI, 49083",42.37703,-85.45947,42,19
435,562,Climax MHP,https://www.mhvillage.com/parks/15494, Kalamazoo ,75,310,532,"14253 East On Avenue, Climax, MI, 49034",42.23909,-85.34544,45,18
436,563,Country Acres,https://www.mhvillage.com/parks/15725, Wexford ,200,,1182,"300 Kristy Jo, Cadillac, MI, 49601",44.24871,-85.4407,101,36
437,564,Gale Valley Estates,https://www.mhvillage.com/parks/316, Kalamazoo ,226,,534,"353 East Michigan Avenue, Galesburg, MI, 49053",42.28488,-85.41088,42,19
438,565,Oak Brook Estates,https://www.mhvillage.com/parks/15902, Kalamazoo ,134,,535,"7200 Lovers Lane, Portage, MI, 49002",42.19698,-85.55991,40,19
439,566,Portage Terrace Mobile Home Park,https://www.mhvillage.com/parks/15491, Kalamazoo ,81,,536,"11247 Portage Road, Portage, MI, 49002",42.15373,-85.56545,42,19
440,575,Mobile Home Estates,https://www.mhvillage.com/parks/15821, Kalkaska ,50,,537,"2012 East Estate Road, Kalkaska, MI, 49646",44.71867,-85.09015,104,36
441,576,Country Meadows Village,https://www.mhvillage.com/parks/15960, Kent ,307,,546,"5401 76th SE, Caledonia, MI, 49316",42.78644,-85.54563,79,20
442,577,Leonard Gardens,https://www.mhvillage.com/parks/577, Kent ,319,,547,"4524 Leonard NW, Grand Rapids, MI, 49534",42.97102,-85.79108,89,30
443,578,Pinebrook Village,https://www.mhvillage.com/parks/15260, Kent ,185,,549,"444 Bellewood Street SE, Grand Rapids, MI, 49548",42.86682,-85.66334,80,29
444,579,Alpine Meadows,https://www.mhvillage.com/parks/15037, Kent ,403,,550,"3800 Fruitridge Avenue NW, Grand Rapids, MI, 49544",43.05124,-85.73307,90,30
445,580,"Key Vista, MHC",https://www.mhvillage.com/parks/15263, Kent ,137,495,551,"1800 West Main Street, Lowell, MI, 49331",42.93103,-85.35858,78,18
446,581,Byron Center,https://www.mhvillage.com/parks/33822, Kent ,143,,552,"2680 84th Street, Byron Center, MI, 49315",42.81036,-85.72937,79,20
447,582,Camelot Manor,https://www.mhvillage.com/parks/15040, Kent ,335,,553,"170 Camelot Blvd, Grand Rapids, MI, 49548",42.86682,-85.66334,80,29
448,583,Cedar Springs Mobile Estates,https://www.mhvillage.com/parks/15245, Kent ,216,450,555,"400 Susan, Cedar Springs, MI, 49319",43.23061,-85.51268,91,33
449,584,Holiday Estates,https://www.mhvillage.com/parks/15303, Wayne ,551,,1166,"46000 Geddes Road Lot 416, Canton, MI, 48188",42.28145,-83.49234,25,5
450,587,Key Heights Village,https://www.mhvillage.com/parks/15253, Kent ,286,495,559,"11335 East Fulton Street, Lowell, MI, 49331",42.9646,-85.37632,90,18
451,588,Cutler Estates,https://www.mhvillage.com/parks/15049, Kent ,259,,560,"6471 South Division, Grand Rapids, MI, 49548",42.82086,-85.66357,79,20
452,589,Grand Village,https://www.mhvillage.com/parks/169, Kent ,230,,561,"6500 South Division Avenue, Grand Rapids, MI, 49548",42.82086,-85.66357,79,20
453,590,Dutton Mill Village,https://www.mhvillage.com/parks/15036, Kent ,307,,562,"6720 West Mill Run SE, Caledonia, MI, 49316",42.84126,-85.5783,79,20
454,591,Algoma Estates,https://www.mhvillage.com/parks/161, Montcalm ,343,395,788,"4456 13 Mile Road, Rockford, MI, 49341",43.12562,-85.49424,90,33
455,592,Brookside Village,https://www.mhvillage.com/parks/15877, Kent ,196,,565,"3130 Slater Ave SE, Kentwood, MI, 49512",42.90659,-85.55911,80,29
456,593,Ferrand Estates,https://www.mhvillage.com/parks/172, Kent ,420,459,566,"4528 Halifax SW, Wyoming, MI, 49519",42.88233,-85.73019,83,29
457,596,Brentwood Village,https://www.mhvillage.com/parks/15041, Kent ,195,,570,"201 60th Street SE, Kentwood, MI, 49548",42.86682,-85.66334,80,29
458,597,Riverview Manufactured Housing Community,https://www.mhvillage.com/parks/15096, Kent ,154,,571,"95 Viking Drive, Sparta, MI, 49345",43.16063,-85.69073,90,33
459,598,Southwood Village,https://www.mhvillage.com/parks/171, Kent ,394,406,548,"440 60th Street SE, Grand Rapids, MI, 49548",42.86682,-85.66334,80,29
460,600,The Oaks of Rockford,https://www.mhvillage.com/parks/104025, Montcalm ,262,525,790,"11640 Townsquare Blvd, Rockford, MI, 49341",43.12562,-85.49424,90,33
461,605,Creekside,https://www.mhvillage.com/parks/15099, Kent ,165,527,568,"5100 Clyde Park Avenue SW, Wyoming, MI, 49509",42.90216,-85.69671,83,29
462,613,Lakeside Village,https://www.mhvillage.com/parks/281, Montcalm ,67,500,794,"12205 Hart Street, Greenville, MI, 48838",43.13567,-85.36587,91,33
463,619,Spring Valley Mobile Home Park,https://www.mhvillage.com/parks/15262, Montcalm ,52,525,795,"6460 Northland Drive, Rockford, MI, 49341",43.12562,-85.49424,90,33
464,621,Whispering Pines,https://www.mhvillage.com/parks/15385, Van Buren ,104,,1119,"67663 County Road 388, South Haven, MI, 49090",42.41813,-86.22021,39,20
465,627,Lincoln Pines Resort Inc,https://www.mhvillage.com/parks/287, Montcalm ,156,,800,"13033 19 Mile Road, Gowen, MI, 49326",43.24926,-85.32648,91,33
466,633,Side-O-Lake Resort Park,https://www.mhvillage.com/parks/15261, Montcalm ,45,,805,"15301 Lakeshore Drive, Gowen, MI, 49326",43.24926,-85.32648,91,33
467,636,La-E-Ma Land Mobile Home Park,https://www.mhvillage.com/parks/15254, Montcalm ,29,,809,"7825 Cannonsburg Road, Rockford, MI, 49341",43.12562,-85.49424,90,33
468,642,Pine Lakes Mobile Home Park,https://www.mhvillage.com/parks/15993, Lapeer ,163,525,572,"110 Pine Lakes Drive, Lapeer, MI, 48446",43.0454,-83.23808,67,26
469,643,Ideal Villa Mobile Home Park,https://www.mhvillage.com/parks/15302, Lapeer ,168,,573,"3660 South Lapeer Road, Metamora, MI, 48455",42.94319,-83.30183,67,24
470,644,Hunters Creek,https://www.mhvillage.com/parks/15872, Lapeer ,402,330,575,"725 Demille Road, Lapeer, MI, 48446",43.05416,-83.33011,67,26
471,645,River Ridge,https://www.mhvillage.com/parks/30003, Washtenaw ,288,420,1137,"289 Dundee, Saline, MI, 48176",42.14439,-83.81735,33,15
472,646,Crestview Manor,https://www.mhvillage.com/parks/15542, Lapeer ,200,375,577,"1485 Ridgeview Drive, Lapeer, MI, 48446",43.05416,-83.33011,67,26
473,647,Deerfield Pines,https://www.mhvillage.com/parks/15929, Lapeer ,122,350,578,"82 Deerfield Pines Drive, North Branch, MI, 48461",43.21108,-83.22283,98,26
474,648,Kingsbrook Estates,https://www.mhvillage.com/parks/443, Lapeer ,233,,579,"4600 N. Van Dyke Road, Almont, MI, 48003",42.93551,-83.04396,65,24
475,649,Lapeer Meadows,https://www.mhvillage.com/parks/15544, Lapeer ,228,290,580,"1265 Farnsworth Road, Lapeer, MI, 48446",43.05416,-83.33011,67,26
476,650,North Branch Meadows,https://www.mhvillage.com/parks/16007, Lapeer ,127,,581,"6800 Lydia Boulevard, North Branch, MI, 48461",43.21108,-83.22283,98,26
477,651,Sand Hill Estates,https://www.mhvillage.com/parks/15546, Lapeer ,50,,582,"4063 Bowers Road, Attica, MI, 48412",43.06305,-83.16774,65,26
478,652,Victoria Meadows,https://www.mhvillage.com/parks/15963, Lapeer ,130,320,583,"3750 Nash Lane, Dryden, MI, 48428",42.93839,-83.15914,65,24
479,653,Garner Drive Mobile Home Park,https://www.mhvillage.com/parks/15545, Lapeer ,18,,584,"Garner Drive, Imlay City, MI, 48444",43.06429,-83.04903,65,26
480,654,Sterling Estates,https://www.mhvillage.com/parks/15148, Macomb ,760,629,670,"43475 La Grand Boulevard, Sterling Heights, MI, 48314",42.60928,-83.0516,57,9
481,655,Maple Woods,https://www.mhvillage.com/parks/522, Lenawee ,285,415,600,"1550 West Beecher Road, Adrian, MI, 49221",41.89354,-84.06128,34,16
482,656,Hidden River North,https://www.mhvillage.com/parks/15930, Lenawee ,211,,601,"975 Beecher Road, Adrian, MI, 49221",41.89354,-84.06128,34,16
483,657,Round Lake Estates,https://www.mhvillage.com/parks/589, Lenawee ,109,360,602,"787 Stoneham, Manitou Beach, MI, 49253",41.9644,-84.28753,34,16
484,658,Newburg Meadows,https://www.mhvillage.com/parks/369, Lenawee ,135,375,603,"9115 North Union Street, Tecumseh, MI, 49286",42.01141,-83.91696,34,15
485,659,Bean Creek Resort,https://www.mhvillage.com/parks/15405, Lenawee ,72,,604,"9575 Devils Lake Highway, Manitou Beach, MI, 49253",41.97564,-84.27058,34,16
486,660,Hidden River South,https://www.mhvillage.com/parks/16023, Lenawee ,202,,605,"3251 South Adrian Highway, Adrian, MI, 49221",41.89354,-84.06128,34,16
487,661,Coach Light Estates,https://www.mhvillage.com/parks/309, Lenawee ,230,,606,"650 West Adrian Street, Blissfield, MI, 49228",41.81319,-83.86387,34,16
488,662,Country Villa,https://www.mhvillage.com/parks/371, Lenawee ,73,675,611,"12919 Tipton Highway, Clinton, MI, 49236",42.08586,-83.95871,33,15
489,663,Friendly Village Of Adrian,https://www.mhvillage.com/parks/15347, Lenawee ,179,378,607,"1100 South Main Street, Adrian, MI, 49221",41.89354,-84.06128,34,16
490,664,Leffingwell Estates,https://www.mhvillage.com/parks/15401, Lenawee ,70,,608,"595 South Meridian Road, Hudson, MI, 49247",41.85379,-84.33698,35,16
491,665,Water Wheel Community,https://www.mhvillage.com/parks/15345, Lenawee ,172,372,610,"316 West Michigan Avenue, Clinton, MI, 49236",42.08586,-83.95871,33,15
492,666,Raisin Valley Estates,https://www.mhvillage.com/parks/15403, Lenawee ,27,,612,"4897 N. Adrian Hwy, Adrian, MI, 49221",41.95703,-84.00383,34,16
493,667,Water's Edge,https://www.mhvillage.com/parks/110884, Lenawee ,48,,613,"Devils Lake Highway, Manitou Beach, MI, 49253",41.97564,-84.27058,34,16
494,668,Clinton Estates,https://www.mhvillage.com/parks/40692, Lenawee ,30,,614,"1801 West Michigan Avenue, Clinton, MI, 49236",42.08586,-83.95871,33,15
495,669,King Mobile Home Court,https://www.mhvillage.com/parks/15346, Lenawee ,123,,615,"1142 Lansing Street, Adrian, MI, 49221",41.89354,-84.06128,34,16
496,670,Southgate Mobile Park,https://www.mhvillage.com/parks/15400, Lenawee ,48,325,616,"2425 East Us Highway 223, Adrian, MI, 49221",41.87328,-84.0143,34,16
497,671,Adrian Estates,https://www.mhvillage.com/parks/15547, Lenawee ,26,,617,"1003 Lansing Street, Adrian, MI, 49221",41.89354,-84.06128,34,16
498,672,Lee Villa Mobile Home Park,https://www.mhvillage.com/parks/15404, Lenawee ,113,342,618,"2985 Gady Road, Adrian, MI, 49221",41.89354,-84.06128,34,16
499,673,Robinhood Mobile Court,https://www.mhvillage.com/parks/15402, Lenawee ,25,,619,"3180 North Adrian, Adrian, MI, 49221",41.89354,-84.06128,34,16
500,674,Silver Lawn Mobile Park,https://www.mhvillage.com/parks/54881, Lenawee ,,,620,"10891 Cement City Highway, Addison, MI, 49220",42.04354,-84.31813,34,16
501,675,Sylvan Glen Estates,https://www.mhvillage.com/parks/341, Livingston ,476,397,621,"6600 Grand River, Brighton, MI, 48114",42.57775,-83.7528,49,22
502,676,Brighton Village,https://www.mhvillage.com/parks/388, Livingston ,195,,623,"7500 Grand River Rd., Brighton, MI, 48114",42.54329,-83.78787,49,22
503,677,Hartland Meadows,https://www.mhvillage.com/parks/15965, Livingston ,617,525,624,"13634 W Highland Rd, Hartland, MI, 48353",42.6449,-83.71859,50,22
504,678,Burkhart Ridge,https://www.mhvillage.com/parks/15997, Livingston ,306,480,625,"1011 River Line Drive, Howell, MI, 48843",42.57271,-83.91015,48,22
505,679,Howell Estates,https://www.mhvillage.com/parks/15420, Livingston ,455,,626,"515 Mason Road, Howell, MI, 48843",42.60019,-83.94013,50,22
506,680,Cedar River Estates,https://www.mhvillage.com/parks/15421, Livingston ,118,,627,"400 Cedar River Drive, Fowlerville, MI, 48836",42.66427,-84.0605,50,22
507,681,Alan's Park,https://www.mhvillage.com/parks/374, Shiawassee ,32,,1086,"11785 Lansing Road, Durand, MI, 48429",42.89658,-84.00732,71,28
508,682,Grandshire Estates,https://www.mhvillage.com/parks/15715, Livingston ,151,550,629,"851 Willow Street, Fowlerville, MI, 48836",42.66427,-84.0605,50,22
509,683,Lake Chemung Outdoor Resort,https://www.mhvillage.com/parks/16058, Livingston ,335,150,630,"320 South Hughes Road, Howell, MI, 48843",42.57271,-83.91015,48,22
510,685,Woodland Park & Sales,https://www.mhvillage.com/parks/15415, Livingston ,65,400,632,"8005 West Grand River Avenue, Brighton, MI, 48114",42.5435,-83.78799,49,22
511,686,Fairlawn Meadows,https://www.mhvillage.com/parks/384, Livingston ,48,,633,"1701 Fairlawn Road, Howell, MI, 48843",42.57271,-83.91015,48,22
512,687,Fairlane Estates Mobile Home Park,https://www.mhvillage.com/parks/15418, Livingston ,60,,634,"2195 East Grand River, Howell, MI, 48843",42.57271,-83.91015,48,22
513,688,Starlight Trailer Court,https://www.mhvillage.com/parks/15413, Livingston ,48,,635,"7175 Bishop Road, Brighton, MI, 48116",42.50307,-83.76896,49,22
514,689,Brighton Trailer Court,https://www.mhvillage.com/parks/15422, Livingston ,9,,636,"614 Flint Road, Brighton, MI, 48116",42.50307,-83.76896,49,22
515,690,Red Oaks Of Chemung,https://www.mhvillage.com/parks/16032, Livingston ,,,637,"102 East Grand River Avenue, Howell, MI, 48843",42.57271,-83.91015,48,22
516,691,Waldon Woods Family Recreation Resort,https://www.mhvillage.com/parks/16055, Livingston ,,,638,"2975 North Old Us 23, Howell, MI, 48855",42.6469,-83.75867,50,22
517,692,River's Edge,https://www.mhvillage.com/parks/15046, Macomb ,1000,,654,"38000 Le Chateau Blvd, Clinton Township, MI, 48038",42.57442,-82.96078,61,11
518,693,Shelby Forest,https://www.mhvillage.com/parks/256, Macomb ,664,447,656,"13955 Bronte Drive, Shelby Township, MI, 48315",42.67107,-83.00109,59,24
519,694,Shelby West,https://www.mhvillage.com/parks/15708, Macomb ,644,,657,"12277 Conservation Trail, Shelby Township, MI, 48315",42.67107,-83.00109,59,24
520,695,Lafayette Place,https://www.mhvillage.com/parks/15065, Macomb ,254,,658,"21155 Warner, Warren, MI, 48091",42.45129,-83.07388,14,3
521,696,East Village Estates,https://www.mhvillage.com/parks/253, Macomb ,708,,659,"57400 Bedford Blvd., Washington, MI, 48094",42.71725,-83.02236,66,24
522,697,Springbrook Estates,https://www.mhvillage.com/parks/15147, Macomb ,398,675,663,"71400 Van Dyke Road, Romeo, MI, 48065",42.81963,-83.01812,66,24
523,698,Rudgate Manor,https://www.mhvillage.com/parks/15089, Macomb ,931,400,664,"5150 Rudgate Boulevard, Sterling Heights, MI, 48310",42.56452,-83.06894,57,9
524,699,Carriage Way,https://www.mhvillage.com/parks/222, Saint Clair ,798,,1024,"29800 Guilford Circle, Chesterfield, MI, 48051",42.67515,-82.81371,63,12
525,700,Silver Springs,https://www.mhvillage.com/parks/37937, Saint Clair ,547,,1025,"43600 Park Drive West, Clinton Township, MI, 48036",42.59859,-82.91368,61,11
526,701,Rudgate Clinton,https://www.mhvillage.com/parks/302, Macomb ,667,,667,"20475 Foster Drive, Clinton Township, MI, 48036",42.57842,-82.91662,61,11
527,702,Pine Crest Estates,https://www.mhvillage.com/parks/31376, Saint Clair ,214,440,1026,"30086 Pineview Circle, Chesterfield, MI, 48051",42.67515,-82.81371,63,12
528,703,Dequindre Estates,https://www.mhvillage.com/parks/15707, Macomb ,303,,669,"2017 Shirewood Dr., Shelby Township, MI, 48317",42.65294,-83.09154,59,24
529,704,Westbridge Manor,https://www.mhvillage.com/parks/251, Saint Clair ,1446,500,1028,"45301 Chateau Thierry Blvd., Macomb, MI, 48044",42.65061,-82.92604,60,11
530,705,Glennwood Village,https://www.mhvillage.com/parks/15233, Macomb ,147,659,677,"2526 Morrissey Road, Warren, MI, 48091",42.46934,-83.05494,14,3
531,706,Millstone Pond,https://www.mhvillage.com/parks/32594, Saint Clair ,263,417,1030,"37781 Sandstone Trail, Lenox, MI, 48048",42.74174,-82.79775,65,25
532,707,Fairchild Lake,https://www.mhvillage.com/parks/15138, Saint Clair ,300,485,1034,"49645 Au Lac Road, Chesterfield, MI, 48051",42.67515,-82.81371,63,12
533,708,Willow Point,https://www.mhvillage.com/parks/33956, Saint Clair ,284,381,1037,"43400 Lenfesty Drive, Harrison Township, MI, 48045",42.61222,-82.85886,62,12
534,709,Westbrook,https://www.mhvillage.com/parks/126708, Saint Clair ,,,1038,"45013 Catalpa Blvd., Macomb, MI, 48044",42.6296,-82.90159,60,11
535,710,Leslie's Mobile Home Village,https://www.mhvillage.com/parks/15067, Macomb ,166,,678,"25214 Gratiot Avenue, Roseville, MI, 48066",42.50967,-82.93596,12,11
536,711,Riverbrook,https://www.mhvillage.com/parks/224, Saint Clair ,390,,1041,"59477 Hardy Lane, New Haven, MI, 48048",42.74174,-82.79775,65,25
537,712,Parkway Village LLC,https://www.mhvillage.com/parks/15090, Saint Clair ,242,347,1044,"23500 South Keystone Way, Clinton Township, MI, 48036",42.59859,-82.91368,61,11
538,716,Richmond Place,https://www.mhvillage.com/parks/15145, Saint Clair ,117,,1035,"36401 Division Road, Richmond, MI, 48062",42.80925,-82.75075,65,25
539,735,River Haven Estates,https://www.mhvillage.com/parks/15826, Mason ,65,,705,"24 Caberfae Highway, Manistee, MI, 49660",44.23921,-86.19861,102,32
540,736,East Lake Estates,https://www.mhvillage.com/parks/16019, Mason ,197,,706,"829 Oregon Avenue, Manistee, MI, 49660",44.23921,-86.19861,102,32
541,737,The Bluffs on Manistee Lake,https://www.mhvillage.com/parks/105890, Mason ,100,,708,"956 Tennessee Avenue, Manistee, MI, 49660",44.23582,-86.29581,102,32
542,738,Forest Pines Manistee,https://www.mhvillage.com/parks/15591, Mason ,75,375,709,"1525 West County Line Road, Manistee, MI, 49660",44.23921,-86.19861,102,32
543,739,Tamarac Village,https://www.mhvillage.com/parks/470, Mason ,293,,699,"2875 North Lakeshore Drive, Ludington, MI, 49431",43.96235,-86.39777,102,32
544,740,Ludington Mobile Home Park,https://www.mhvillage.com/parks/15589, Mason ,68,,700,"5040 Rasmussen Road, Ludington, MI, 49431",43.96235,-86.39777,102,32
545,741,Hidden Forest,https://www.mhvillage.com/parks/30045, Mason ,116,407,701,"3626 West Hidden Forest Drive, Ludington, MI, 49431",43.96235,-86.39777,102,32
546,742,Holiday Village Of Scottville,https://www.mhvillage.com/parks/15590, Mason ,150,,702,"1701 West Us Highway 10-31, Scottville, MI, 49454",43.95513,-86.32162,102,32
547,743,Heritage Hills Mobile Home Estates,https://www.mhvillage.com/parks/15593, Mason ,30,,703,"3677 South Pere Marquette, Ludington, MI, 49431",43.96235,-86.39777,102,32
548,744,Laman's Landing Resort,https://www.mhvillage.com/parks/15592, Mason ,32,,704,"6100 North Beaune Road, Ludington, MI, 49431",43.96235,-86.39777,102,32
549,745,Lakewood Mobile Home Park,https://www.mhvillage.com/parks/15618, Oceana ,40,300,896,"408 East Sands Street, Pentwater, MI, 49449",43.79434,-86.37572,102,32
550,746,Big Rapids Mobile Home Court,https://www.mhvillage.com/parks/15579, Mecosta ,135,255,710,"606 Bjornson Street, Big Rapids, MI, 49307",43.7051,-85.51279,100,34
551,747,Country Manor Estates,https://www.mhvillage.com/parks/15999, Mecosta ,78,300,711,"18500 Northland Drive, Big Rapids, MI, 49307",43.7051,-85.51279,100,34
552,748,Holiday Terrace Mobile Home Park,https://www.mhvillage.com/parks/15594, Mecosta ,71,,712,"10845 Percy Lane, Mecosta, MI, 49332",43.63724,-85.24514,100,34
553,749,Parks Place Estates,https://www.mhvillage.com/parks/528, Mecosta ,29,300,713,"14065 30th Avenue, Remus, MI, 49340",43.6693,-85.14673,100,34
554,750,Sunset Shores,https://www.mhvillage.com/parks/76392, Mecosta ,80,,714,"10406 Pierce Rd., Stanwood, MI, 49346",43.59275,-85.40347,100,34
555,751,Haven View Mobile Home Court,https://www.mhvillage.com/parks/15596, Mecosta ,80,,715,"18505 Northland Drive, Big Rapids, MI, 49307",43.7051,-85.51279,100,34
556,752,College Park Mobile Village,https://www.mhvillage.com/parks/15600, Mecosta ,100,,716,"1111 Catherine Street, Big Rapids, MI, 49307",43.7051,-85.51279,100,34
557,753,Country Mobile Home Court,https://www.mhvillage.com/parks/15629, Osceola ,20,,927,"6420 East 13 Mile Road, Paris, MI, 49338",43.7569,-85.60857,101,33
558,754,Circle Drive Mobile Home Park,https://www.mhvillage.com/parks/15597, Mecosta ,50,,718,"12380 185th Avenue, Big Rapids, MI, 49307",43.64786,-85.45304,100,34
559,755,Hunter's Creek,https://www.mhvillage.com/parks/476, Mecosta ,50,,719,"11334 120th Avenue, Rodney, MI, 49342",43.63143,-85.32412,100,34
560,756,Forest Hills Park,https://www.mhvillage.com/parks/15598, Mecosta ,,,720,"14400 Northland Drive, Big Rapids, MI, 49307",43.7051,-85.51279,100,34
561,757,Round Lake Resort Mobile Home Park,https://www.mhvillage.com/parks/15599, Mecosta ,8,,721,"11133 Eleven Mile Road, Mecosta, MI, 49332",43.63724,-85.24514,100,34
562,758,Buck's Mobile Home Park,https://www.mhvillage.com/parks/15595, Mecosta ,,,722,"21965 8 Mile Road, Stanwood, MI, 49346",43.59275,-85.40347,100,34
563,759,Lackie's Birch Haven Subdivision,https://www.mhvillage.com/parks/16042, Osceola ,,,928,"Airstrip Road, Barryton, MI, 49305",43.75187,-85.14328,100,34
564,760,Roger Heights Mobile Home Park,https://www.mhvillage.com/parks/52249, Mecosta ,,,724,"11299 Riverside Drive, Stanwood, MI, 49346",43.59275,-85.40347,100,34
565,761,Bayside Mobile Estates,https://www.mhvillage.com/parks/15843, Menominee ,97,,725,"3400 - 10th Street, Menominee, MI, 49858",45.12976,-87.61257,108,38
566,762,Cedar Ridge Mobile Home Park,https://www.mhvillage.com/parks/15845, Menominee ,75,,726,"5000 13th Street, Menominee, MI, 49858",45.14611,-87.61748,108,38
573,769,Science City,https://www.mhvillage.com/parks/337, Midland ,171,,733,"3823 Bay City Road, Midland, MI, 48642",43.60536,-84.18068,95,35
574,770,Alpine Village,https://www.mhvillage.com/parks/15379, Midland ,283,,735,"3601 Alpine Drive, Midland, MI, 48642",43.70512,-84.23785,95,35
575,771,Old Oak Trails Estates,https://www.mhvillage.com/parks/15955, Midland ,203,357,736,"1661 North Old Oak Trail, Sanford, MI, 48657",43.71958,-84.40022,95,34
576,772,Arlington Manor,https://www.mhvillage.com/parks/15378, Midland ,100,285,737,"222 Rockwell Dr, Midland, MI, 48642",43.70512,-84.23785,95,35
577,773,Coleman Mobile Home Park,https://www.mhvillage.com/parks/15381, Midland ,58,250,738,"330 South 3rd Street, Coleman, MI, 48618",43.75117,-84.58959,95,34
578,774,Oakside Mobile Home Park,https://www.mhvillage.com/parks/409, Midland ,142,285,739,"2752 West North Union Road, Midland, MI, 48642",43.70512,-84.23785,95,35
579,775,Stolkholm Forest Village,https://www.mhvillage.com/parks/15380, Midland ,121,285,740,"800 West Mier Road, Sanford, MI, 48657",43.71958,-84.40022,95,34
580,776,Victoria Woods,https://www.mhvillage.com/parks/15450, Midland ,52,270,741,"2574 West Midland Road, Midland, MI, 48642",43.70512,-84.23785,95,35
581,777,Maple Grove Village,https://www.mhvillage.com/parks/15340, Midland ,140,,742,"400 Kuipers Drive, Midland, MI, 48642",43.70512,-84.23785,95,35
582,778,Countryside Manor,https://www.mhvillage.com/parks/361, Midland ,63,,743,"47 North Meridian Road, Midland, MI, 48640",43.58296,-84.35133,95,35
583,779,Rumbaugh Estates,https://www.mhvillage.com/parks/362, Midland ,59,,744,"1404 Rumbaugh, Midland, MI, 48642",43.70512,-84.23785,95,35
584,780,Lakeview Trailer Park,https://www.mhvillage.com/parks/15382, Midland ,18,,745,"320 Cedar Street, Sanford, MI, 48657",43.71958,-84.40022,95,34
585,781,"Evergreen Whispering Pines MHP, LLC",https://www.mhvillage.com/parks/42428, Midland ,105,550,746,"227 W. Olson Road, Midland, MI, 48640",43.58296,-84.35133,95,35
586,782,Woodview Mobile Home Park,https://www.mhvillage.com/parks/338, Midland ,,,748,"257 West Olson Road, Midland, MI, 48640",43.58296,-84.35133,95,35
587,783,Pine Court,https://www.mhvillage.com/parks/29402, Osceola ,15,,925,"5340 West Stoney Corners Road, Mc Bain, MI, 49657",44.22911,-85.17152,105,36
588,784,Sandy Oaks Resort,https://www.mhvillage.com/parks/105535, Roscommon ,227,,988,"2757 Owens Dr, Houghton Lake, MI, 48629",44.29882,-84.73407,105,36
589,785,Cadillac Leisure Mobile Home Park,https://www.mhvillage.com/parks/15722, Wexford ,98,,1184,"1101-1151 6th Stt, Cadillac, MI, 49601",44.25966,-85.42514,101,36
590,786,Whispering Oaks Mobile Home Park,https://www.mhvillage.com/parks/15862, Roscommon ,26,,991,"3517 West Houghton Lake Drive, Houghton Lake, MI, 48629",44.29882,-84.73407,105,36
591,787,Mounds Mobile Home Park,https://www.mhvillage.com/parks/54551, Roscommon ,,,994,"130 Mounds Trail, Houghton Lake, MI, 48629",44.29882,-84.73407,105,36
592,788,North Shore Trailer Park,https://www.mhvillage.com/parks/15865, Roscommon ,,,995,"8687 East Houghton Lake Road, Houghton Lake, MI, 48629",44.29882,-84.73407,105,36
593,789,Poplar's Resort,https://www.mhvillage.com/parks/15669, Roscommon ,,,997,"10360 West Shore Dr, Houghton Lake, MI, 48629",44.29882,-84.73407,105,36
594,790,Frenchtown Villa / Elizabeth Woods,https://www.mhvillage.com/parks/15319, Monroe ,1149,,764,"1250 Paree, Newport, MI, 48166",41.97734,-83.29112,28,16
595,791,Meadowbrook Estates,https://www.mhvillage.com/parks/331, Monroe ,453,,765,"1250 Strandwyck, Monroe, MI, 48161",41.91011,-83.42683,30,16
596,792,Kimberly Estates,https://www.mhvillage.com/parks/329, Monroe ,387,,766,"7769 Kimberly Dr, Newport, MI, 48166",41.99027,-83.36667,29,16
597,793,Newport Farms,https://www.mhvillage.com/parks/30588, Monroe ,513,492,768,"9059 W. Timberview Dr., Newport, MI, 48166",42.00771,-83.33446,28,16
598,794,Raisin Ridge,https://www.mhvillage.com/parks/15994, Monroe ,404,,772,"801 Franklin Blvd, Monroe, MI, 48161",41.93203,-83.46824,31,16
599,795,Inverness Mobile Home Community,https://www.mhvillage.com/parks/415, Monroe ,518,,769,"6230 Lewis Avenue, Temperance, MI, 48182",41.79069,-83.58813,30,16
600,796,Oakridge Estates,https://www.mhvillage.com/parks/15737, Monroe ,621,,770,"75 Briarwood Trail, Monroe, MI, 48161",41.89171,-83.40729,30,16
601,797,Pleasantville MHC,https://www.mhvillage.com/parks/15337, Monroe ,152,,773,"1045 Nadeau Road, Monroe, MI, 48162",41.94976,-83.44536,29,16
602,798,Country Heritage,https://www.mhvillage.com/parks/15969, Monroe ,213,,774,"771 Mary Jean Court, Dundee, MI, 48131",41.94859,-83.65202,31,16
603,799,The Orchards,https://www.mhvillage.com/parks/33834, Monroe ,630,483,771,"3600 Townsquare Boulevard, Carleton, MI, 48117",42.03778,-83.42102,31,16
604,800,Carleton Mobile Home Park,https://www.mhvillage.com/parks/15338, Monroe ,228,385,775,"12500 Jones Rd., Carleton, MI, 48117",42.05671,-83.38965,29,16
605,801,Dundee Meadows,https://www.mhvillage.com/parks/15951, Monroe ,80,450,776,"202 Emerald Circle, Dundee, MI, 48131",41.96234,-83.66653,31,16
606,802,Elizabeth Woods,https://www.mhvillage.com/parks/105129, Monroe ,620,553,777,"1250 Paree, Newport, MI, 48166",42.00351,-83.35345,28,16
607,803,Flat Rock Village,https://www.mhvillage.com/parks/15485, Monroe ,332,,778,"11150 Telegraph Road, Carleton, MI, 48117",42.03778,-83.42102,31,16
608,804,Hidden Creek,https://www.mhvillage.com/parks/15937, Monroe ,351,379,779,"6400 South Dixie Highway, Erie, MI, 48133",41.78609,-83.48738,30,16
609,805,Mill Race Shores Manufactured Housing Community,https://www.mhvillage.com/parks/15941, Monroe ,97,,780,"563 Allen Road, Milan, MI, 48160",42.08375,-83.67022,31,15
610,806,Northtowne Meadows,https://www.mhvillage.com/parks/15734, Monroe ,386,450,781,"6255 Telegraph Road, Erie, MI, 48133",41.78609,-83.48738,30,16
611,807,Willow Green,https://www.mhvillage.com/parks/15336, Monroe ,429,385,782,"2033 North Outer Drive, Monroe, MI, 48161",41.91264,-83.47301,30,16
612,808,Yorkshire Manor,https://www.mhvillage.com/parks/15309, Monroe ,280,356,783,"1205 York Blvd., Carleton, MI, 48117",42.03778,-83.42102,31,16
613,809,Shamrock Mobile Home Park,https://www.mhvillage.com/parks/15480, Monroe ,54,,784,"1811 North Telegraph Road, Monroe, MI, 48162",41.94976,-83.44536,29,16
614,810,Sunny South Villa,https://www.mhvillage.com/parks/15479, Monroe ,68,,785,"15377 South Telegraph, Monroe, MI, 48161",41.91264,-83.47301,30,16
615,811,Huron River Mobile Home Park,https://www.mhvillage.com/parks/15750, Monroe ,89,,786,"8025 South Huron River Road, South Rockwood, MI, 48179",42.05419,-83.26085,28,16
616,817,Village Trails,https://www.mhvillage.com/parks/15979, Montcalm ,100,,789,"518 Hickory Ln., Howard City, MI, 49329",43.3823,-85.47568,91,33
617,818,Brookside Mobile Home Sites,https://www.mhvillage.com/parks/15657, Montcalm ,14,,791,"7875 Garlock Road, Carson City, MI, 48811",43.18769,-84.85692,93,33
618,819,Creekview Mobile Home Park,https://www.mhvillage.com/parks/15654, Montcalm ,84,375,792,"400 North Walnut, Greenville, MI, 48838",43.20853,-85.27232,91,33
619,820,Edmore Estates,https://www.mhvillage.com/parks/492, Montcalm ,18,,793,"525 West Gilson Street, Edmore, MI, 48829",43.41448,-85.01942,91,33
620,821,Stanton Mobile Home Community,https://www.mhvillage.com/parks/15656, Montcalm ,50,,796,"101 Rachael, Stanton, MI, 48888",43.31444,-85.10173,91,33
621,822,Stoney Lake Mobile Home Park,https://www.mhvillage.com/parks/15652, Montcalm ,14,325,797,"2650 Stoney Lake Blvd., Stanton, MI, 48888",43.25525,-85.07728,91,33
622,823,Tamarack Pines Estates,https://www.mhvillage.com/parks/15920, Montcalm ,80,,798,"9555 Maple Hill Road, Howard City, MI, 49329",43.40285,-85.50268,91,33
623,824,Thunderhawk Resort,https://www.mhvillage.com/parks/83549, Montcalm ,50,330,799,"4261 N Bass Lake Rd, Pierson, MI, 49339",43.3378,-85.47797,91,33
624,825,Pond View Estates,https://www.mhvillage.com/parks/472, Montcalm ,90,,801,"613 North Edgeview Street, Greenville, MI, 48838",43.20853,-85.27232,91,33
625,826,Sheridan Mobile Home Park,https://www.mhvillage.com/parks/15653, Montcalm ,26,,802,"453 East Condensery Road, Sheridan, MI, 48884",43.21177,-85.05864,91,33
626,827,Greenbrier Estates,https://www.mhvillage.com/parks/15655, Montcalm ,57,,803,"11345 South Greenville Road, Greenville, MI, 48838",43.20853,-85.27232,91,33
627,828,Pondview Manufactured Home Community,https://www.mhvillage.com/parks/104897, Montcalm ,93,,804,"621 North Walnut Street, Greenville, MI, 48838",43.18644,-85.24159,91,33
628,829,Sandy Creek,https://www.mhvillage.com/parks/15938, Montcalm ,,,806,"Tbd, Crystal, MI, 48818",43.26309,-84.91473,93,33
629,830,White Oak Acres,https://www.mhvillage.com/parks/16017, Montcalm ,34,,807,"Wood Road, Sheridan, MI, 48884",43.21177,-85.05864,91,33
630,831,Tamarack Meadows,https://www.mhvillage.com/parks/32162, Montcalm ,135,495,808,"1601 Hiddenview Dr, Lakeview, MI, 48850",43.44553,-85.27591,91,33
631,835,Hunt Creek Mobile Home Court,https://www.mhvillage.com/parks/15899, Presque Isle ,,,985,"600 North Elizabeth, Hillman, MI, 49746",45.04133,-83.94273,106,36
632,836,City Of Rose City Trailer Park,https://www.mhvillage.com/parks/15847, Oscoda ,,,939,"310 North Williams Street, Rose City, MI, 48654",44.47283,-84.12718,99,36
633,837,Presque Isle Estates,https://www.mhvillage.com/parks/575, Presque Isle ,,,978,"1605 Morley Drive, Rogers City, MI, 49779",45.40277,-83.77896,106,36
634,838,Whispering Pines Trailer Park,https://www.mhvillage.com/parks/15850, Oscoda ,,,930,"236 South Mount Tom Road, Mio, MI, 48647",44.68578,-84.06082,106,36
635,839,Apple Carr Village,https://www.mhvillage.com/parks/305, Muskegon ,529,,832,"516 South Courtland Lane, Muskegon, MI, 49442",43.24349,-86.12583,89,32
636,840,Clover Estates Mobile Home Community,https://www.mhvillage.com/parks/407, Muskegon ,223,,833,"3239 Clover Parkway, Muskegon, MI, 49444",43.16883,-86.19416,89,32
637,841,Egelcraft,https://www.mhvillage.com/parks/15871, Muskegon ,458,,834,"2129 Arrowhead Drive, Muskegon, MI, 49442",43.2142,-86.14254,89,32
638,842,Park Meadows,https://www.mhvillage.com/parks/15739, Muskegon ,300,427,835,"210 East Giles, North Muskegon, MI, 49445",43.29868,-86.27285,87,32
639,843,"Pine Island Recreation Park, Inc.",https://www.mhvillage.com/parks/15440, Muskegon ,30,,836,"3768 Pine Island Drive, Lot 9, Holton, MI, 49425",43.41283,-86.14919,102,32
640,844,Derby Brothers Company,https://www.mhvillage.com/parks/70655, Muskegon ,30,325,837,"3774 Pine Island Drive, Holton, MI, 49425",43.41298,-86.14933,102,32
641,845,Bel Air Estates,https://www.mhvillage.com/parks/15315, Muskegon ,116,395,838,"2481 West Sherman Boulevard, Muskegon, MI, 49441",43.1869,-86.27287,88,32
642,846,Norton Shores,https://www.mhvillage.com/parks/405, Muskegon ,656,,839,"3223 Bailey Street, Muskegon, MI, 49444",43.19381,-86.21534,87,32
643,847,Arlington Woods,https://www.mhvillage.com/parks/307, Muskegon ,659,335,840,"3785 Evanston Avenue, Muskegon, MI, 49442",43.2459,-86.14177,89,32
644,848,Cricklewood Court,https://www.mhvillage.com/parks/15293, Muskegon ,62,695,849,"23604 36th Avenue, Ravenna, MI, 49451",43.19947,-85.87744,89,33
645,849,Crystal Downs MHC,https://www.mhvillage.com/parks/15312, Muskegon ,104,525,841,"2701 Crystal Lake Road, Whitehall, MI, 49461",43.38689,-86.3276,102,32
646,850,Nomad MHC,https://www.mhvillage.com/parks/15441, Muskegon ,111,,842,"2701 Huizenga Street, Muskegon, MI, 49444",43.16883,-86.19416,89,32
647,851,Oaks Mobile Home Park,https://www.mhvillage.com/parks/335, Muskegon ,172,,843,"3240 Getty Street, Muskegon, MI, 49444",43.19449,-86.22454,87,32
648,852,Emerald Estates,https://www.mhvillage.com/parks/15622, Newaygo ,30,345,861,"238 Jones Street, Grant, MI, 49327",43.33695,-85.84536,101,33
649,853,Hidden Oaks MHC,https://www.mhvillage.com/parks/194, Muskegon ,104,,845,"14787 Apple Drive, Fruitport, MI, 49415",43.15305,-86.12557,89,32
650,854,Timberline Estates Mobile Home Park,https://www.mhvillage.com/parks/15548, Muskegon ,302,,846,"2315 Oak Street, Twin Lake, MI, 49457",43.36803,-86.14947,102,32
651,855,Edgewood Mobile Park,https://www.mhvillage.com/parks/15445, Muskegon ,65,,847,"7433 Whitehall Road, Whitehall, MI, 49461",43.38689,-86.3276,102,32
652,856,West Pine Island Manufactured Home Community,https://www.mhvillage.com/parks/3977, Muskegon ,30,,848,"3534 Pinewood Trail, Holton, MI, 49425",43.44293,-86.11695,102,32
653,857,Maple Island Estates,https://www.mhvillage.com/parks/15443, Muskegon ,129,,850,"7311 White Road, Muskegon, MI, 49442",43.2459,-86.14177,89,32
654,858,Mona Lake Mobile Home Park,https://www.mhvillage.com/parks/15442, Muskegon ,67,,851,"3527 Hoyt Street, Muskegon, MI, 49444",43.16883,-86.19416,89,32
655,859,West Pine Island,https://www.mhvillage.com/parks/46519, Muskegon ,30,,852,"1091 East Laketon, Muskegon, MI, 49442",43.2459,-86.14177,89,32
656,860,Crestview Estates MHC,https://www.mhvillage.com/parks/15444, Muskegon ,,,853,"3290 Getty Street, Muskegon, MI, 49444",43.16883,-86.19416,89,32
657,863,Brookhaven Estates,https://www.mhvillage.com/parks/15972, Newaygo ,178,318,854,"622 South Division Street, Newaygo, MI, 49337",43.43292,-85.69911,101,33
658,864,Brooks Lake Mobile Home Park,https://www.mhvillage.com/parks/16002, Newaygo ,15,,855,"2263 Spruell, Newaygo, MI, 49337",43.43292,-85.69911,101,33
659,865,Country View Estates,https://www.mhvillage.com/parks/15961, Newaygo ,134,,856,"401 Market Street, Fremont, MI, 49412",43.47283,-85.96834,101,33
660,866,Fremont Hills Mobile Home Park,https://www.mhvillage.com/parks/15625, Newaygo ,58,295,857,"927 Lake Drive, Fremont, MI, 49412",43.46012,-85.91641,101,33
661,868,Meadowview Village,https://www.mhvillage.com/parks/15624, Newaygo ,86,280,858,"1307 Locust Street, Fremont, MI, 49412",43.46012,-85.91641,101,33
662,869,Rob-Ann Mobile Home Court,https://www.mhvillage.com/parks/15623, Newaygo ,84,260,859,"1215 Locust Street, Fremont, MI, 49412",43.46012,-85.91641,101,33
663,870,Lake Forest Park,https://www.mhvillage.com/parks/15627, Newaygo ,70,,862,"9502 South 2nd Street, Grant, MI, 49327",43.38183,-85.77775,101,33
664,871,Leisure Time,https://www.mhvillage.com/parks/51641, Newaygo ,94,,863,"4799 South Spruce Avenue, White Cloud, MI, 49349",43.59664,-85.76073,101,33
665,872,Four Seasons Trailer Park,https://www.mhvillage.com/parks/15626, Newaygo ,56,,864,"3531 Antor, Newaygo, MI, 49337",43.43292,-85.69911,101,33
666,873,Maple Lane Mobile Home Park,https://www.mhvillage.com/parks/485, Newaygo ,30,,865,"65 South North Street, White Cloud, MI, 49349",43.59664,-85.76073,101,33
667,874,Sportsman Park,https://www.mhvillage.com/parks/30405, Newaygo ,75,,866,"2500 Sportsman Drive, White Cloud, MI, 49349",43.59664,-85.76073,101,33
668,875,Zmrzlik Mobile Home Park,https://www.mhvillage.com/parks/52252, Newaygo ,,,867,"277 Echo Drive, White Cloud, MI, 49349",43.59664,-85.76073,101,33
669,876,The Woodlands,https://www.mhvillage.com/parks/15072, Oakland ,375,,869,"1441 W. Romeo Rd., Oakland Township, MI, 48363",42.79891,-83.16643,66,24
670,877,Sashabaw Meadows,https://www.mhvillage.com/parks/200, Oakland ,511,,871,"4359 Dogwood Boulevard, Clarkston, MI, 48348",42.75994,-83.41043,52,23
671,878,Orion Lakes,https://www.mhvillage.com/parks/15176, Oakland ,423,,873,"47 Bluebird Hill, Orion, MI, 48359",42.72557,-83.27255,54,24
672,879,Ridgewood,https://www.mhvillage.com/parks/15073, Oakland ,500,390,874,"3331 Stoneybrook Drive, Milford, MI, 48380",42.60998,-83.66783,51,23
673,880,White Lake,https://www.mhvillage.com/parks/15178, Oakland ,315,511,875,"1415 Fisk Road, White Lake, MI, 48386",42.65948,-83.47848,51,23
674,881,Highland Greens Estates,https://www.mhvillage.com/parks/15083, Oakland ,907,,876,"2377 North Milford Road, Highland, MI, 48357",42.65963,-83.61861,51,23
675,882,Childs Lake Estates,https://www.mhvillage.com/parks/176, Oakland ,619,612,877,"4377 Old Plank Road, Milford, MI, 48381",42.55917,-83.60581,51,23
676,883,Kensington Place,https://www.mhvillage.com/parks/15063, Oakland ,488,614,878,"60501 Grand River, New Hudson, MI, 48165",42.49632,-83.62307,49,23
677,884,Commerce Meadows,https://www.mhvillage.com/parks/15710, Oakland ,602,719,879,"2400 Meadows Circle Drive, Wixom, MI, 48393",42.51883,-83.54914,49,23
678,885,Stratford Villa,https://www.mhvillage.com/parks/15172, Oakland ,409,679,880,"3333 Stratford Villa Way, Wixom, MI, 48393",42.51883,-83.54914,49,23
679,886,Meadow Lake,https://www.mhvillage.com/parks/15878, Oakland ,425,540,881,"3951 Bentwood Circle West, White Lake, MI, 48383",42.69415,-83.56175,51,23
680,887,Clarkston Lakes,https://www.mhvillage.com/parks/15152, Oakland ,498,669,882,"4260 Dogwood Blvd., Clarkston, MI, 48348",42.75994,-83.41043,52,23
681,888,Sheffield Estates,https://www.mhvillage.com/parks/15550, Oakland ,228,479,883,"165 South Opdyke Road, Auburn Hills, MI, 48326",42.66474,-83.27461,53,7
682,889,Rochester Estates,https://www.mhvillage.com/parks/15077, Oakland ,775,689,884,"600 Le Grand Boulevard West, Rochester, MI, 48307",42.65989,-83.12274,55,9
683,890,South Lyon Woods,https://www.mhvillage.com/parks/15171, Oakland ,211,,886,"530 Lanier St., South Lyon, MI, 48178",42.45572,-83.64766,23,23
684,891,Troy Villa,https://www.mhvillage.com/parks/15175, Oakland ,282,358,887,"2100 Stephenson Highway, Troy, MI, 48083",42.55458,-83.12253,56,9
685,892,College Heights,https://www.mhvillage.com/parks/15235, Oakland ,161,,889,"3501 Auburn Road, Auburn Hills, MI, 48326",42.66474,-83.27461,53,7
686,893,Cedarbrook Estates,https://www.mhvillage.com/parks/257, Oakland ,691,589,890,"323 Le Grande Boulevard, White Lake, MI, 48383",42.6556,-83.52972,51,23
687,894,Novi Meadows,https://www.mhvillage.com/parks/15080, Oakland ,401,659,891,"26250 Virginia Avenue, Novi, MI, 48374",42.46948,-83.52443,21,13
688,895,Fawn Lake Estates,https://www.mhvillage.com/parks/15071, Oakland ,135,,894,"831 North Pontiac Trail, Walled Lake, MI, 48390",42.55292,-83.48216,51,23
689,896,Lake Villa,https://www.mhvillage.com/parks/187, Oakland ,850,478,892,"182 Parker Lake Drive, Oxford, MI, 48371",42.82544,-83.23046,66,24
690,938,Hesperia MHP,https://www.mhvillage.com/parks/106678, Oceana ,99,,903,"946 North Smith St Hesperia Mi 49421, Hesperia, MI, 49421",43.57217,-86.02691,101,33
691,939,Holiday Shores,https://www.mhvillage.com/parks/105361, Oceana ,54,,897,"7980 Village Rd, Mears, MI, 49436",43.69036,-86.47706,102,32
692,940,Hylander Valley,https://www.mhvillage.com/parks/15619, Oceana ,71,220,898,"231 North Eastwood Road, Hart, MI, 49420",43.73003,-86.28381,102,32
693,941,Sun Retreats Silver Lake,https://www.mhvillage.com/parks/111228, Oceana ,,,899,"1441 N. 34th Street, Mears, MI, 49436",43.67202,-86.47347,102,32
694,942,Evergreen Village Mobile Home Park,https://www.mhvillage.com/parks/15630, Oceana ,99,,900,"946 N. Smith St., Hesperia, MI, 49421",43.57217,-86.02691,101,33
695,943,Pines Mobile Home Park,https://www.mhvillage.com/parks/15621, Oceana ,48,,901,"3241 72nd Street, Hart, MI, 49420",43.70482,-86.37955,102,32
696,944,Green Lawn Mobile Home Court,https://www.mhvillage.com/parks/15620, Oceana ,40,,902,"2725 Forest Street, Rothbury, MI, 49452",43.51292,-86.277,102,32
697,945,Evart Mobile Court,https://www.mhvillage.com/parks/15602, Osceola ,21,,921,"201 Fair Street, Evart, MI, 49631",43.90763,-85.23521,100,34
698,946,Young's Trailer Park,https://www.mhvillage.com/parks/479, Osceola ,17,,922,"521 East Church Avenue, Reed City, MI, 49677",43.88709,-85.50842,100,34
699,947,Pheasant Ridge Estates,https://www.mhvillage.com/parks/15879, Wexford ,196,400,1183,"399 Thistlewood Drive, Cadillac, MI, 49601",44.25705,-85.54792,101,36
700,948,Shady Lane Trailer Court,https://www.mhvillage.com/parks/15861, Roscommon ,,,998,"9671 Airport Road, Saint Helen, MI, 48656",44.3737,-84.45642,105,36
701,950,Knollwood,https://www.mhvillage.com/parks/298, Ottawa ,161,,958,"4595 Knollwood Drive, Allendale, MI, 49401",42.9792,-85.93827,89,30
702,951,Allendale Meadows,https://www.mhvillage.com/parks/195, Ottawa ,352,,959,"11400 Boyne Boulevard, Allendale, MI, 49401",42.97615,-85.91025,89,30
703,952,Presidential Estates,https://www.mhvillage.com/parks/15035, Ottawa ,364,469,960,"5075 Presidential Lane, Hudsonville, MI, 49426",42.86056,-85.84727,85,31
704,953,Country Hills Village,https://www.mhvillage.com/parks/15971, Ottawa ,236,,961,"2200 Riley Street, Hudsonville, MI, 49426",42.82574,-85.83773,43,31
705,954,Leisure Estates,https://www.mhvillage.com/parks/15070, Ottawa ,438,599,967,"523 Butternut Drive, Holland, MI, 49424",42.84691,-86.12535,86,31
706,955,Windmill Estates,https://www.mhvillage.com/parks/190, Ottawa ,400,625,965,"333 East Lakewood Boulevard, Holland, MI, 49424",42.84691,-86.12535,86,31
707,956,Timberline Estates,https://www.mhvillage.com/parks/211, Ottawa ,296,444,957,"260 Pin Oak Drive, Coopersville, MI, 49404",43.0722,-85.95367,89,30
708,957,West Olive Estates,https://www.mhvillage.com/parks/15907, Ottawa ,741,366,966,"8930 146th Avenue, West Olive, MI, 49460",42.93087,-86.14741,88,31
709,958,Lincoln Estates,https://www.mhvillage.com/parks/231, Ottawa ,191,452,962,"1139 Lincoln Avenue, Holland, MI, 49423",42.76859,-86.09715,86,31
710,959,Logan Estates,https://www.mhvillage.com/parks/601, Ottawa ,378,360,968,"8697 Riley Street, Zeeland, MI, 49464",42.8298,-85.99427,85,31
711,960,Brookshire Meadows West,https://www.mhvillage.com/parks/15921, Ottawa ,98,,969,"1501 Port Sheldon Road, Jenison, MI, 49428",42.91956,-85.84175,85,31
712,961,Country Estates,https://www.mhvillage.com/parks/296, Ottawa ,255,,970,"14700 State Road, Spring Lake, MI, 49456",43.08642,-86.15331,88,31
713,962,North Shore Manufactured Home Community and RV,https://www.mhvillage.com/parks/15299, Ottawa ,123,,971,"17990 North Shore Road, Spring Lake, MI, 49456",43.08278,-86.23485,88,31
714,963,Village Green Mobile Home Park,https://www.mhvillage.com/parks/230, Ottawa ,392,520,972,"1700 Robbins Road, Grand Haven, MI, 49417",43.01959,-86.1235,88,31
715,964,Boulder Ridge,https://www.mhvillage.com/parks/30512, Ottawa ,96,350,973,"4370 Pingree, Allendale, MI, 49401",42.9792,-85.93827,89,30
716,965,Crockery Mobile Home Park,https://www.mhvillage.com/parks/27720, Ottawa ,168,442,975,"13251 State Road, Nunica, MI, 49448",43.08912,-86.11726,88,31
717,966,Forest Lake Estates,https://www.mhvillage.com/parks/580, Ottawa ,221,442,976,"17147 148th Avenue, Spring Lake, MI, 49456",43.08046,-86.16039,88,31
718,967,Grand Country Mobile Village,https://www.mhvillage.com/parks/15295, Ottawa ,52,325,977,"13401 84th Street, Coopersville, MI, 49404",43.01102,-85.99683,89,30
719,968,Holiday West Village,https://www.mhvillage.com/parks/15728, Ottawa ,341,,964,"3611 Butternut Drive, Holland, MI, 49424",42.83347,-86.14889,86,31
720,972,Waverly Shores Village,https://www.mhvillage.com/parks/15926, Ottawa ,326,,963,"11777 Riley Street, Holland, MI, 49424",42.84691,-86.12535,86,31
721,976,Denton Township Trailer Park,https://www.mhvillage.com/parks/15864, Roscommon ,59,,989,"808 Lake Street, Prudenville, MI, 48651",44.25112,-84.61186,105,36
722,977,Lakeview Mobile Home Park,https://www.mhvillage.com/parks/15858, Roscommon ,49,,990,"454 East Houghton Lake Drive, Prudenville, MI, 48651",44.25112,-84.61186,105,36
723,978,Windmill Estates (Saginaw),https://www.mhvillage.com/parks/15556, Saginaw ,59,225,1014,"5655 Dixie Highway, Saginaw, MI, 48601",43.41401,-83.92621,94,35
724,979,Freeland Mobile Home Park,https://www.mhvillage.com/parks/593, Saginaw ,122,270,1008,"10340 Midland Road, Freeland, MI, 48623",43.50701,-84.16247,97,35
725,980,Falconview Estates,https://www.mhvillage.com/parks/15952, Saginaw ,179,415,1000,"9645 Meadowlark, Freeland, MI, 48623",43.50701,-84.16247,97,35
726,981,Lawndale Estates,https://www.mhvillage.com/parks/15331, Saginaw ,667,367,1001,"4509 Longmeadow Blvd W, Saginaw, MI, 48603",43.47308,-84.04161,93,35
727,982,Birch Forest Manufactured Housing Community,https://www.mhvillage.com/parks/15326, Saginaw ,103,,1002,"1 Big Bear, Birch Run, MI, 48415",43.27871,-83.80726,97,26
728,983,Saginaw Valley Mobile Home Park,https://www.mhvillage.com/parks/15553, Saginaw ,179,,1003,"6160 Davis Road, Saginaw, MI, 48604",43.49612,-83.95579,97,35
729,984,Robin Glen,https://www.mhvillage.com/parks/15551, Saginaw ,505,350,1004,"5720 East Washington Road, Saginaw, MI, 48601",43.41401,-83.92621,94,35
730,985,Lakeview Estates on Lawndale,https://www.mhvillage.com/parks/43135, Saginaw ,122,340,1005,"4231 Lawndale Road, Saginaw, MI, 48603",43.46935,-84.03448,93,35
731,986,Birchwood Farms,https://www.mhvillage.com/parks/15932, Saginaw ,143,,1006,"8057 Birchwood Drive, Birch Run, MI, 48415",43.27871,-83.80726,97,26
732,987,Edgewood Village Mobile Home Community,https://www.mhvillage.com/parks/15892, Saginaw ,198,385,1007,"1490 South Graham Road, Saginaw, MI, 48609",43.403,-84.07321,93,26
733,988,Peachtree Manor,https://www.mhvillage.com/parks/15458, Saginaw ,86,325,1010,"7575 Dixie Highway, Bridgeport, MI, 48722",43.3432,-83.84325,97,26
734,989,Stoddard Mobile Court,https://www.mhvillage.com/parks/15327, Saginaw ,125,,1012,"16940 South Oakley Road, Chesaning, MI, 48616",43.19782,-84.13047,71,26
735,990,Thomas Crossings,https://www.mhvillage.com/parks/103519, Saginaw ,43,350,1013,"1723 Cranberry Lake Cir, Saginaw, MI, 48609",43.403,-84.07321,93,26
736,991,Burt Estates,https://www.mhvillage.com/parks/15330, Saginaw ,112,,1015,"11324 East Road, Burt, MI, 48417",43.26405,-83.94485,93,26
737,992,Kris Kay Mobile Home Park,https://www.mhvillage.com/parks/15332, Saginaw ,302,,1016,"1800 Graham Road, Saginaw, MI, 48609",43.403,-84.07321,93,26
738,993,Birch Run Mobile Home Park,https://www.mhvillage.com/parks/15559, Saginaw ,50,,1017,"10670 Dixie Highway, Birch Run, MI, 48415",43.27871,-83.80726,97,26
739,994,Saginaw Villas,https://www.mhvillage.com/parks/15328, Saginaw ,469,,1018,"4141 Dixie Highway, Saginaw, MI, 48601",43.41401,-83.92621,94,35
740,995,Pleasant Valley Estates,https://www.mhvillage.com/parks/15329, Saginaw ,220,300,1019,"16105 Doyle Road, Hemlock, MI, 48626",43.40693,-84.2362,93,26
741,996,Bridgeport Mobile Home Park,https://www.mhvillage.com/parks/15557, Saginaw ,,,1020,"5948 Dixie Highway, Saginaw, MI, 48601",43.41401,-83.92621,94,35
742,997,Evergreen Trailer Park,https://www.mhvillage.com/parks/15552, Saginaw ,,,1021,"614 Owosso Street, Chesaning, MI, 48616",43.19782,-84.13047,71,26
743,998,St. Clair Place,https://www.mhvillage.com/parks/15504, Saint Clair ,100,625,1027,"2700 Cox Road, Saint Clair, MI, 48079",42.85563,-82.5461,64,25
744,999,The Lakes Estates,https://www.mhvillage.com/parks/15987, Saint Clair ,254,,1029,"5901 Lapeer Road, Kimball, MI, 48074",42.94735,-82.57144,64,25
745,1000,The Shores of Anchor Bay,https://www.mhvillage.com/parks/15512, Saint Clair ,659,369,1031,"7061 Bethuy Road, Fair Haven, MI, 48023",42.72154,-82.71075,63,12
746,1001,Pinewood on the Lake,https://www.mhvillage.com/parks/421, Saint Clair ,380,,1032,"2109 Redwood Avenue, Columbus, MI, 48063",42.83795,-82.6648,65,25
747,1002,Admirals Cove Senior Living,https://www.mhvillage.com/parks/106208, Saint Clair ,500,,1033,"10470 Dixie Hwy, Fair Haven, MI, 48023",42.69016,-82.70127,63,12
748,1003,Shangri La Mobile Home Community,https://www.mhvillage.com/parks/15324, Saint Clair ,270,360,1036,"6900 South River Road, Marine City, MI, 48039",42.69406,-82.54969,63,25
749,1004,Channel View,https://www.mhvillage.com/parks/15713, Saint Clair ,303,470,1023,"5150 Taft Road, Clay Township, MI, 48001",42.63062,-82.57803,63,12
750,1005,Indian Trail North,https://www.mhvillage.com/parks/319, Saint Clair ,496,390,1039,"3650 Metcalf Road, Burtchville, MI, 48059",43.08691,-82.50022,64,25
751,1006,Hunters Crossing,https://www.mhvillage.com/parks/30614, Saint Clair ,114,324,1040,"150 Hunters Crossing Boulevard, Capac, MI, 48014",43.0258,-82.93776,65,25
752,1007,Algonac Mobile Home Park,https://www.mhvillage.com/parks/15513, Saint Clair ,30,332,1042,"3812 Pointe Tremble Road, Algonac, MI, 48001",42.63516,-82.58246,63,12
753,1008,Marysville Senior Living,https://www.mhvillage.com/parks/321, Saint Clair ,230,,1043,"3333 Ravenswood Road, Marysville, MI, 48040",42.93655,-82.46486,64,25
754,1029,Colonial Estates Mobile Home Park,https://www.mhvillage.com/parks/15696, Saint Joseph ,112,486,1045,"501 Us Highway 131 North, White Pigeon, MI, 49099",41.80159,-85.6618,36,17
755,1030,Klines Resort,https://www.mhvillage.com/parks/468, Saint Joseph ,244,432,1046,"22260 Klines Resort Road, Three Rivers, MI, 49093",42.04843,-85.52378,36,17
756,1031,Meadow Lane Village,https://www.mhvillage.com/parks/507, Saint Joseph ,127,390,1047,"614 13th Street, Three Rivers, MI, 49093",41.93812,-85.61865,36,17
757,1032,Memory Lane Mobile Home Park,https://www.mhvillage.com/parks/510, Saint Joseph ,227,380,1048,"25039 West Us 12, Sturgis, MI, 49091",41.79494,-85.46631,36,17
758,1033,River Run Estates,https://www.mhvillage.com/parks/15944, Saint Joseph ,60,325,1049,"800 East Hoffman Street, Three Rivers, MI, 49093",41.97611,-85.63896,36,17
759,1034,Sturgis Commons,https://www.mhvillage.com/parks/111198, Saint Joseph ,21,250,1050,"960 W Chicago St, Sturgis, MI, 49091",41.7974,-85.43202,36,17
760,1035,Sweet Lake Mobile Home Park,https://www.mhvillage.com/parks/15700, Saint Joseph ,48,410,1051,"31004 East Chicago Road, Sturgis, MI, 49091",41.8426,-85.43596,36,17
761,1036,Washburn Lake Village MHC,https://www.mhvillage.com/parks/15693, Saint Joseph ,42,245,1052,"59502 Long Lake Road, Colon, MI, 49040",41.98217,-85.34158,36,17
762,1037,Village Mobile Home Court,https://www.mhvillage.com/parks/15702, Saint Joseph ,82,325,1054,"121 South Erie Street, Three Rivers, MI, 49093",41.97611,-85.63896,36,17
763,1038,Michiana Mobile Home Park,https://www.mhvillage.com/parks/15699, Saint Joseph ,38,,1055,"231 1st St, Sturgis, MI, 49091",41.80088,-85.42926,36,17
764,1039,River Forest Mobile Home Park,https://www.mhvillage.com/parks/15694, Saint Joseph ,56,,1056,"19013 Fawn River Road, White Pigeon, MI, 49099",41.79712,-85.67925,36,17
765,1040,Golden Pond Mobile Home Park,https://www.mhvillage.com/parks/506, Saint Joseph ,39,,1057,"61600 Youngman Road, Three Rivers, MI, 49093",41.97611,-85.63896,36,17
766,1041,Hickory Lane Mobile Home Park,https://www.mhvillage.com/parks/15695, Saint Joseph ,32,,1058,"14809 West M-60, Three Rivers, MI, 49093",41.97611,-85.63896,36,17
767,1042,River's Edge Mobile Home Community,https://www.mhvillage.com/parks/15697, Saint Joseph ,76,220,1059,"135 North Jane Street, Centreville, MI, 49032",41.92322,-85.52973,36,17
768,1043,Camp Withers Mobile Home Park,https://www.mhvillage.com/parks/15698, Saint Joseph ,,,1060,"15717 Withers Road, Constantine, MI, 49042",41.85222,-85.66766,36,17
769,1044,Midway Mobile Home Park,https://www.mhvillage.com/parks/15701, Saint Joseph ,,,1061,"920 West Chicago, Sturgis, MI, 49091",41.8426,-85.43596,36,17
770,1045,Rocky's Hide Away,https://www.mhvillage.com/parks/66109, Saint Joseph ,,,1062,"Born Street, Three Rivers, MI, 49093",41.97611,-85.63896,36,17
771,1046,Huron Shores Estates,https://www.mhvillage.com/parks/15584, Sanilac ,189,,1063,"144 Shoreline East, Port Sanilac, MI, 48469",43.45362,-82.55642,98,25
772,1047,Eagles Landing Estates,https://www.mhvillage.com/parks/15896, Sanilac ,350,348,1064,"2335 Peck Road, Croswell, MI, 48422",43.25701,-82.64868,98,25
773,1048,Lakeview Manufactured Home Community,https://www.mhvillage.com/parks/15646, Sanilac ,45,,1065,"5767 Main Street, Lexington, MI, 48450",43.2624,-82.53023,98,25
774,1049,Country Hill Pines,https://www.mhvillage.com/parks/15650, Sanilac ,97,400,1066,"3997 Peck Road, Croswell, MI, 48422",43.25701,-82.64868,98,25
775,1050,Croswell Estates Mobile Home Park,https://www.mhvillage.com/parks/15645, Sanilac ,46,,1067,"20 Black River Road, Croswell, MI, 48422",43.27129,-82.63007,98,25
776,1051,Lexington North Shore Mobile Home Community,https://www.mhvillage.com/parks/15647, Sanilac ,228,489,1068,"5203 Main Street, Lexington, MI, 48450",43.25623,-82.53776,98,25
777,1052,Deckerville Estates,https://www.mhvillage.com/parks/15644, Sanilac ,43,,1069,"2451 Black River Street, Deckerville, MI, 48427",43.52664,-82.73705,98,25
778,1053,Huron Bay Resort,https://www.mhvillage.com/parks/15950, Sanilac ,60,,1070,"2545 South Lakeshore Drive, Applegate, MI, 48401",43.34503,-82.66988,98,25
779,1054,Mapleview Estates,https://www.mhvillage.com/parks/15901, Sanilac ,124,,1072,"7120 Maple View Circle, Brown City, MI, 48416",43.2269,-82.98934,98,25
780,1055,Sandpiper Estates Co-op,https://www.mhvillage.com/parks/15649, Sanilac ,90,,1073,"6103 Lakeshore Road, Lexington, MI, 48450",43.25623,-82.53776,98,25
781,1056,Pine Terrace Estates,https://www.mhvillage.com/parks/15651, Sanilac ,56,,1074,"2236 Van Dyke Road, Marlette, MI, 48453",43.35645,-83.00265,98,25
782,1057,Marlette Subdivision,https://www.mhvillage.com/parks/16045, Sanilac ,,,1075,"Lilac Dr, Marlette, MI, 48453",43.35645,-83.00265,98,25
783,1058,Countryside Village,https://www.mhvillage.com/parks/381, Shiawassee ,359,445,1078,"4600 West Britton Road, Perry, MI, 48872",42.79956,-84.20716,71,28
784,1059,Candlewick Court,https://www.mhvillage.com/parks/383, Shiawassee ,211,,1077,"1800 Candlewick Drive, Owosso, MI, 48867",42.98324,-84.18965,71,28
785,1060,Holiday Shores RV Resort,https://www.mhvillage.com/parks/64592, Shiawassee ,615,205,1079,"10915 East Goodall Road, Durand, MI, 48429",42.89658,-84.00732,71,28
786,1061,Lakeview Estates,https://www.mhvillage.com/parks/327, Shiawassee ,239,385,1080,"8499 East M-71, Durand, MI, 48429",42.89658,-84.00732,71,28
787,1062,Leisure Lake,https://www.mhvillage.com/parks/15990, Shiawassee ,425,,1081,"10001 East Goodall Road, Durand, MI, 48429",42.89658,-84.00732,71,28
788,1063,Morrice Meadows,https://www.mhvillage.com/parks/15983, Shiawassee ,102,497,1083,"335 E. Third St, Morrice, MI, 48857",42.83946,-84.1719,71,28
789,1064,Woods & Fields Communities - West,https://www.mhvillage.com/parks/39603, Shiawassee ,72,300,1084,"2627 West M 21, Owosso, MI, 48867",42.9963,-84.17578,71,28
790,1065,Country Manor,https://www.mhvillage.com/parks/377, Shiawassee ,44,,1085,"5649 Vernon Road, Durand, MI, 48429",42.89658,-84.00732,71,28
791,1066,Northwoods Community,https://www.mhvillage.com/parks/15409, Shiawassee ,97,,1087,"2100 North Hintz Road, Owosso, MI, 48867",42.9963,-84.17578,71,28
792,1067,Woods and Fields Communities - East,https://www.mhvillage.com/parks/379, Shiawassee ,323,310,1088,"2450 Krouse Road, Owosso, MI, 48867",42.9963,-84.17578,71,28
793,1068,Pleasant Valley Trailer Court,https://www.mhvillage.com/parks/15867, Shiawassee ,,,1091,"1704 South M-52, Owosso, MI, 48867",42.9963,-84.17578,71,28
794,1069,Van's Mobile Home Park,https://www.mhvillage.com/parks/15407, Shiawassee ,,,1092,"9720 East Lansing Road, Durand, MI, 48429",42.89658,-84.00732,71,28
795,1070,Creekside Manor,https://www.mhvillage.com/parks/467, Tuscola ,140,350,1093,"1655 South Reese Road, Reese, MI, 48757",43.48647,-83.6802,97,26
796,1071,Huntsville Mobile Home Park,https://www.mhvillage.com/parks/15637, Tuscola ,60,255,1095,"6451 Main Street, Cass City, MI, 48726",43.6078,-83.21029,98,25
797,1072,Pebble Creek,https://www.mhvillage.com/parks/15643, Tuscola ,128,,1096,"1145 Bradford, Reese, MI, 48757",43.48647,-83.6802,97,26
798,1073,Pine Crest Mobile Home Estates,https://www.mhvillage.com/parks/15641, Tuscola ,89,300,1097,"1771 Sunset Dr., Caro, MI, 48723",43.51691,-83.35852,97,25
799,1074,Riverview Park,https://www.mhvillage.com/parks/15640, Tuscola ,99,,1098,"985 Norma Drive, Caro, MI, 48723",43.49228,-83.38507,97,25
800,1075,Sugar Tree Estates,https://www.mhvillage.com/parks/31096, Tuscola ,207,,1099,"1347 Cambridge Lane, Caro, MI, 48723",43.50556,-83.38237,97,25
801,1076,Villageside Mobile Home Park,https://www.mhvillage.com/parks/15945, Tuscola ,16,,1100,"2378 North Thomas Road, Fairgrove, MI, 48733",43.53879,-83.57378,97,26
802,1077,Wood Valley Mobile Home Park,https://www.mhvillage.com/parks/15890, Tuscola ,141,270,1101,"5651 Hasco Road, Millington, MI, 48746",43.27934,-83.55401,97,26
803,1078,Vassar Estates,https://www.mhvillage.com/parks/488, Tuscola ,10,,1102,"5656 Freewald, Millington, MI, 48746",43.27934,-83.55401,97,26
804,1079,Depot Mobile Home Park,https://www.mhvillage.com/parks/16060, Van Buren ,100,280,1110,"Dunkley Avenue, South Haven, MI, 49090",42.41813,-86.22021,39,20
805,1080,Caro Mobile Estates,https://www.mhvillage.com/parks/15638, Tuscola ,,,1104,"165 - 3rd Street, Caro, MI, 48723",43.48033,-83.40468,97,25
806,1081,Ber-Wa-Ga-Na Campground,https://www.mhvillage.com/parks/73127, Tuscola ,,,1105,"2601 W Sanilac, Vassar, MI, 48768",43.36773,-83.56067,97,26
807,1082,Leo's Cabins Trailer Park,https://www.mhvillage.com/parks/490, Tuscola ,,,1106,"533 Goodrich Street, Vassar, MI, 48768",43.36773,-83.56067,97,26
808,1083,Walnut Trailer Park,https://www.mhvillage.com/parks/15642, Tuscola ,,,1107,"4118 South Seeger Street, Cass City, MI, 48726",43.6078,-83.21029,98,25
809,1084,Prospect Manor MHC,https://www.mhvillage.com/parks/15394, Van Buren ,52,365,1125,"1012 S.  Lagrave Street, Paw Paw, MI, 49079",42.20427,-85.87731,39,19
810,1085,Applewood Mobile Home Park,https://www.mhvillage.com/parks/31541, Van Buren ,30,330,1109,"53425 County Road 687, Hartford, MI, 49057",42.17197,-86.15671,39,20
811,1086,Lawrence Mobile Home Park,https://www.mhvillage.com/parks/15393, Van Buren ,60,,1111,"175 Corwin Road, Lawrence, MI, 49064",42.21484,-86.06538,39,20
812,1087,Meadowbrook Village,https://www.mhvillage.com/parks/15886, Van Buren ,50,,1112,"07120 - 68th Street, South Haven, MI, 49090",42.39284,-86.20709,39,20
813,1088,Mitchell Brothers Mobile Home Park East,https://www.mhvillage.com/parks/15392, Van Buren ,49,,1113,"75641 16th Ave, South Haven, MI, 49090",42.41813,-86.22021,39,20
814,1089,Phelps Mobile Home Park,https://www.mhvillage.com/parks/15390, Van Buren ,35,,1114,"56630 - 89th Avenue, Decatur, MI, 49045",42.09674,-86.09552,39,20
815,1090,The Ravines,https://www.mhvillage.com/parks/15743, Van Buren ,106,375,1115,"73100 County Road 388, South Haven, MI, 49090",42.41813,-86.22021,39,20
816,1091,The Village View,https://www.mhvillage.com/parks/59383, Van Buren ,71,300,1116,"Becky Blvd, Paw Paw, MI, 49079",42.22974,-85.90916,39,20
817,1092,Three Mile Lake Trailer Park,https://www.mhvillage.com/parks/15383, Van Buren ,48,450,1117,"63381 - 41st Street, Paw Paw, MI, 49079",42.18771,-85.95,39,20
818,1093,West Point Hills,https://www.mhvillage.com/parks/15322, Van Buren ,377,385,1118,"53914 25th Street, Mattawan, MI, 49071",42.24458,-85.77246,39,19
819,1094,Singing Sands RV Park,https://www.mhvillage.com/parks/104917, Van Buren ,150,,1120,"262 74th St, South Haven, MI, 49090",42.43859,-86.26099,38,20
820,1095,Baseline Mobile Home Park,https://www.mhvillage.com/parks/15113, Van Buren ,75,,1121,"M-40 North, Gobles, MI, 49055",42.36507,-85.85603,39,20
821,1096,Viking River Mobile Home Park,https://www.mhvillage.com/parks/15386, Van Buren ,25,,1122,"63580 54th Avenue, Hartford, MI, 49057",42.22237,-86.16232,39,20
822,1097,Shady Brook Mobile Home Park,https://www.mhvillage.com/parks/15388, Van Buren ,20,,1123,"43910 30th St, Paw Paw, MI, 49079",42.26014,-85.84485,39,20
823,1098,Deal Mobile Home Village,https://www.mhvillage.com/parks/15395, Van Buren ,58,,1124,"24575 Pleasant Drive, Mattawan, MI, 49071",42.24458,-85.77246,39,19
824,1099,South Haven Manufactured Housing Community,https://www.mhvillage.com/parks/15387, Van Buren ,47,,1126,"73561 Chambers Street, South Haven, MI, 49090",42.41813,-86.22021,39,20
825,1100,Frosty Acres,https://www.mhvillage.com/parks/15880, Van Buren ,75,,1127,"Frosty Road, Lawton, MI, 49065",42.135,-85.84237,39,20
826,1101,East Point Hills,https://www.mhvillage.com/parks/16029, Van Buren ,,,1128,"28910 25th Street, Mattawan, MI, 49071",42.23536,-85.79491,39,19
827,1102,Wolf Lake Mobile Home Park,https://www.mhvillage.com/parks/15384, Van Buren ,41,,1129,"24054 M-43 Route #1, Mattawan, MI, 49071",42.24458,-85.77246,39,19
828,1110,Augusta Woods,https://www.mhvillage.com/parks/29550, Washtenaw ,398,563,1130,"8330 N. Brookston Drive, Willis, MI, 48191",42.1696,-83.54464,31,15
829,1111,Orchard Grove,https://www.mhvillage.com/parks/391, Washtenaw ,290,,1132,"2835 South Wagner Rd., Ann Arbor, MI, 48103",42.24536,-83.79625,33,14
830,1112,Royal Holiday,https://www.mhvillage.com/parks/15206, Wayne ,436,,1180,"39500 West Warren Road, Lot 110, Canton, MI, 48187",42.33048,-83.74797,48,14
831,1113,Arbor Woods,https://www.mhvillage.com/parks/15943, Washtenaw ,458,,1133,"1993 Arbor Woods Boulevard, Ypsilanti, MI, 48198",42.27038,-83.59978,23,15
832,1114,Scio Farms,https://www.mhvillage.com/parks/15562, Washtenaw ,913,,1134,"6655 Jackson Road, Ann Arbor, MI, 48103",42.29152,-83.85969,47,14
833,1115,Lakeview ,https://www.mhvillage.com/parks/15304, Washtenaw ,392,410,1135,"9910 Geraldine Street, Ypsilanti, MI, 48197",42.19994,-83.56478,32,15
834,1116,Sylvan Crossing,https://www.mhvillage.com/parks/37563, Washtenaw ,138,485,1142,"23351 Redwood Drive, Chelsea, MI, 48118",42.29652,-84.04003,46,14
835,1117,Northfield Estates,https://www.mhvillage.com/parks/15705, Washtenaw ,648,495,1138,"158 Emerald Circle, Whitmore Lake, MI, 48189",42.42484,-83.77513,48,14
836,1118,Arbor Meadows,https://www.mhvillage.com/parks/15711, Washtenaw ,409,759,1143,"5229 West Michigan Avenue, Ypsilanti, MI, 48197",42.20175,-83.62191,32,15
837,1119,Saline Meadows,https://www.mhvillage.com/parks/15426, Washtenaw ,148,450,1139,"6564 East Michigan Avenue Lot 39, Saline, MI, 48176",42.19529,-83.72082,33,15
838,1120,Coachville MHC,https://www.mhvillage.com/parks/312, Washtenaw ,121,,1148,"3423 Carpenter Road, Ypsilanti, MI, 48197",42.20175,-83.62191,32,15
839,1121,Hamburg Hills,https://www.mhvillage.com/parks/15417, Washtenaw ,152,420,1141,"7243 Sheldon Road, Whitmore Lake, MI, 48189",42.40808,-83.7945,48,14
840,1122,Coventry Woods,https://www.mhvillage.com/parks/15935, Washtenaw ,195,420,1144,"7243 Sheldon Road, Whitmore Lake, MI, 48189",42.40808,-83.7945,48,14
841,1123,Sunnyside Park,https://www.mhvillage.com/parks/15427, Washtenaw ,53,410,1145,"2740 Packard, Ann Arbor, MI, 48108",42.22341,-83.72918,33,15
842,1124,Swan Creek,https://www.mhvillage.com/parks/15931, Wayne ,304,,1173,"23379 Island Drive, New Boston, MI, 48164",42.13347,-83.39271,29,4
843,1125,Timberlands,https://www.mhvillage.com/parks/30335, Washtenaw ,184,950,1147,"3375 East Michigan Avenue, Ypsilanti, MI, 48198",42.27038,-83.59978,23,15
844,1126,Manchester Manor,https://www.mhvillage.com/parks/15918, Washtenaw ,116,325,1149,"101 Hibbard Street, Manchester, MI, 48158",42.16163,-84.02147,47,15
845,1127,Saline Mobile Home Park,https://www.mhvillage.com/parks/15428, Washtenaw ,81,,1150,"475 North Maple Road, Saline, MI, 48176",42.14439,-83.81735,33,15
846,1128,Village Estates,https://www.mhvillage.com/parks/15425, Washtenaw ,71,,1151,"2580 Holmes Road, Ypsilanti, MI, 48198",42.27038,-83.59978,23,15
847,1129,Westridge Mobile Home Park,https://www.mhvillage.com/parks/15320, Washtenaw ,373,470,1152,"1515 Ridge Road, Ypsilanti, MI, 48198",42.27038,-83.59978,23,15
848,1130,Whittaker Oaks,https://www.mhvillage.com/parks/31950, Washtenaw ,228,425,1153,"11333 Whittaker Road, Whittaker, MI, 48190",42.13194,-83.59457,31,15
849,1137,College Park Estates,https://www.mhvillage.com/parks/15047, Wayne ,230,,1155,"51074 Mott Road #243, Canton, MI, 48188",42.26249,-83.54209,31,4
850,1138,Sherwood Village,https://www.mhvillage.com/parks/274, Wayne ,385,,1157,"41275 Old Michigan, Canton, MI, 48188",42.27872,-83.44458,25,5
851,1139,Deerfield Estates,https://www.mhvillage.com/parks/15712, Wayne ,822,425,1158,"26211 Telegraph Road, Flat Rock, MI, 48134",42.10896,-83.29846,28,4
852,1140,Metro Commons,https://www.mhvillage.com/parks/15194, Wayne ,227,439,1160,"28745 Van Born Rd., Romulus, MI, 48174",42.26574,-83.3214,26,4
853,1141,Northville Crossing,https://www.mhvillage.com/parks/15975, Wayne ,756,600,1161,"9800 Bloomsbury Circle, Northville, MI, 48167",42.43107,-83.60844,23,14
854,1142,West Village Estates,https://www.mhvillage.com/parks/15923, Wayne ,629,,1163,"7040 Shawnee, Romulus, MI, 48174",42.20291,-83.34416,31,4
855,1143,Academy / West Point,https://www.mhvillage.com/parks/15209, Wayne ,441,,1164,"41021 Old Michigan Ave, Canton, MI, 48188",42.27312,-83.44285,25,5
856,1144,Tela Valley Manufactured Home Community,https://www.mhvillage.com/parks/182, Wayne ,488,390,1179,"17707 Telegraph Road, Brownstown Township, MI, 48174",42.17717,-83.26191,28,4
857,1145,Holiday West,https://www.mhvillage.com/parks/15189, Wayne ,844,,1165,"50333 Willis Road, Belleville, MI, 48111",42.17526,-83.47532,31,4
858,1147,Plymouth Hills,https://www.mhvillage.com/parks/214, Wayne ,632,450,1167,"14150 D Drive, Plymouth, MI, 48170",42.36352,-83.53664,23,13
859,1148,Crestwood Estates,https://www.mhvillage.com/parks/15181, Wayne ,196,350,1169,"26235 West Warren Avenue, Dearborn Heights, MI, 48127",42.33439,-83.27389,15,2
860,1150,Woodhaven Place,https://www.mhvillage.com/parks/15211, Wayne ,220,487,1171,"23501 Van Horn Road, Woodhaven, MI, 48183",42.12796,-83.21699,28,4
861,1151,American Presidential Estates,https://www.mhvillage.com/parks/515, Wayne ,503,,1175,"6300 West Adams, Belleville, MI, 48111",42.17526,-83.47532,31,4
862,1152,Rawsonville Woods,https://www.mhvillage.com/parks/15057, Wayne ,536,488,1176,"10825 Rawsonville Road, Belleville, MI, 48111",42.13237,-83.54066,31,4
863,1155,North Huron Manufactured Housing Community,https://www.mhvillage.com/parks/15974, Wayne ,96,440,1178,"33151 Fort Road Site #6, Rockwood, MI, 48173",42.06536,-83.2496,28,4
864,1159,Capitol Hills,https://www.mhvillage.com/parks/514, Wayne ,503,460,1181,"6300 West Adams, Belleville, MI, 48111",42.17526,-83.47532,31,4